{
  "type" : "FeatureCollection",
  "features" : [{"type":"Feature","id":3,"geometry":{"type":"Point","coordinates":[13.122162000000001,32.8467555]},"properties":{"FID":3,"NAME":"محطة افيكوات / المدينة + الجامعة","NAME_EN":"IVECO TAXI : AL MADINA & University","RAILWAY":" ","HIGHWAY":"bus_stop","REF":" ","NETWORK":" ","PUBLIC_TRA":" ","OSM_TYPE":"node","OSM_ID":5015050925}},{"type":"Feature","id":7,"geometry":{"type":"Point","coordinates":[13.162920700000001,32.850721300000004]},"properties":{"FID":7,"NAME":"صلاح الدين","NAME_EN":"salh alden","RAILWAY":" ","HIGHWAY":"bus_stop","REF":" ","NETWORK":" ","PUBLIC_TRA":"platform","OSM_TYPE":"node","OSM_ID":5907375585}},{"type":"Feature","id":21,"geometry":{"type":"Point","coordinates":[13.083314300000001,32.853130400000005]},"properties":{"FID":21,"NAME":"شركة السهم","NAME_EN":"Al Sahm","RAILWAY":" ","HIGHWAY":"bus_stop","REF":" ","NETWORK":" ","PUBLIC_TRA":"platform","OSM_TYPE":"node","OSM_ID":8629037574}},{"type":"Feature","id":22,"geometry":{"type":"Point","coordinates":[13.0850551,32.854118500000006]},"properties":{"FID":22,"NAME":"الجمهورية","NAME_EN":"Al Sahm","RAILWAY":" ","HIGHWAY":"bus_stop","REF":" ","NETWORK":" ","PUBLIC_TRA":"platform","OSM_TYPE":"node","OSM_ID":8629037575}},{"type":"Feature","id":23,"geometry":{"type":"Point","coordinates":[13.088620200000001,32.8568614]},"properties":{"FID":23,"NAME":"سوق العروبة","NAME_EN":"Orouba Market","RAILWAY":" ","HIGHWAY":"bus_stop","REF":" ","NETWORK":" ","PUBLIC_TRA":"platform","OSM_TYPE":"node","OSM_ID":8629037576}},{"type":"Feature","id":24,"geometry":{"type":"Point","coordinates":[13.0890038,32.856786400000004]},"properties":{"FID":24,"NAME":"سوق العروبة","NAME_EN":"Al Sahm","RAILWAY":" ","HIGHWAY":"bus_stop","REF":" ","NETWORK":" ","PUBLIC_TRA":"platform","OSM_TYPE":"node","OSM_ID":8629037577}},{"type":"Feature","id":25,"geometry":{"type":"Point","coordinates":[13.0918127,32.8585797]},"properties":{"FID":25,"NAME":"زرقاء اليمامة","NAME_EN":"Zarqa Yamama","RAILWAY":" ","HIGHWAY":"bus_stop","REF":"1220","NETWORK":"Route 83","PUBLIC_TRA":"platform","OSM_TYPE":"node","OSM_ID":8629037578}},{"type":"Feature","id":26,"geometry":{"type":"Point","coordinates":[13.091507100000001,32.858833700000005]},"properties":{"FID":26,"NAME":"زرقاء اليمامة","NAME_EN":"Zarqa Yamama","RAILWAY":" ","HIGHWAY":"bus_stop","REF":"1219","NETWORK":"Route 12","PUBLIC_TRA":"platform","OSM_TYPE":"node","OSM_ID":8629037579}},{"type":"Feature","id":27,"geometry":{"type":"Point","coordinates":[13.102426100000001,32.862158800000003]},"properties":{"FID":27,"NAME":"شارع 10","NAME_EN":"10 Via","RAILWAY":" ","HIGHWAY":"bus_stop","REF":"1216","NETWORK":"Route 12","PUBLIC_TRA":"platform","OSM_TYPE":"node","OSM_ID":8629106638}},{"type":"Feature","id":28,"geometry":{"type":"Point","coordinates":[13.1101732,32.863414599999999]},"properties":{"FID":28,"NAME":"كوبري العمال","NAME_EN":"Lapor Bridge","RAILWAY":" ","HIGHWAY":"bus_stop","REF":"1214","NETWORK":"Route 12","PUBLIC_TRA":"platform","OSM_TYPE":"node","OSM_ID":8629106640}},{"type":"Feature","id":29,"geometry":{"type":"Point","coordinates":[13.110074300000001,32.863917100000002]},"properties":{"FID":29,"NAME":"كوبري العمال","NAME_EN":"Al Sahm","RAILWAY":" ","HIGHWAY":"bus_stop","REF":"1213","NETWORK":"Route 12","PUBLIC_TRA":"platform","OSM_TYPE":"node","OSM_ID":8629106641}},{"type":"Feature","id":30,"geometry":{"type":"Point","coordinates":[13.130397500000001,32.867130800000005]},"properties":{"FID":30,"NAME":"مصرف الامان","NAME_EN":"AMAN Bank","RAILWAY":" ","HIGHWAY":"bus_stop","REF":"1207","NETWORK":"Route 12","PUBLIC_TRA":"platform","OSM_TYPE":"node","OSM_ID":8629106644}},{"type":"Feature","id":31,"geometry":{"type":"Point","coordinates":[13.130841100000001,32.867013]},"properties":{"FID":31,"NAME":"مصرف الامان","NAME_EN":"AMAN Bank","RAILWAY":" ","HIGHWAY":"bus_stop","REF":"1208","NETWORK":"Route 12","PUBLIC_TRA":"platform","OSM_TYPE":"node","OSM_ID":8629106645}},{"type":"Feature","id":32,"geometry":{"type":"Point","coordinates":[13.1404508,32.870534400000004]},"properties":{"FID":32,"NAME":" ","NAME_EN":"Al Sahm","RAILWAY":" ","HIGHWAY":"bus_stop","REF":"1206","NETWORK":"Route 12","PUBLIC_TRA":"platform","OSM_TYPE":"node","OSM_ID":8629106646}},{"type":"Feature","id":33,"geometry":{"type":"Point","coordinates":[13.141339100000001,32.871447799999999]},"properties":{"FID":33,"NAME":" ","NAME_EN":"Al Sahm","RAILWAY":" ","HIGHWAY":"bus_stop","REF":"1205","NETWORK":"Route 12","PUBLIC_TRA":"platform","OSM_TYPE":"node","OSM_ID":8629106647}},{"type":"Feature","id":34,"geometry":{"type":"Point","coordinates":[13.2462631,32.906879600000003]},"properties":{"FID":34,"NAME":"11 يونيو","NAME_EN":"11  June","RAILWAY":" ","HIGHWAY":"bus_stop","REF":"21","NETWORK":"Route 21","PUBLIC_TRA":"platform","OSM_TYPE":"node","OSM_ID":8629266359}},{"type":"Feature","id":35,"geometry":{"type":"Point","coordinates":[13.393950400000001,32.875317200000005]},"properties":{"FID":35,"NAME":"مستشفي القلب","NAME_EN":"Heart Hospital","RAILWAY":" ","HIGHWAY":"bus_stop","REF":"93","NETWORK":"Route 21","PUBLIC_TRA":"platform","OSM_TYPE":"node","OSM_ID":8629266361}},{"type":"Feature","id":36,"geometry":{"type":"Point","coordinates":[13.1907744,32.893906300000005]},"properties":{"FID":36,"NAME":"كوبري الودان","NAME_EN":"Al Weddan","RAILWAY":" ","HIGHWAY":"bus_stop","REF":"4104","NETWORK":"Route 41","PUBLIC_TRA":"platform","OSM_TYPE":"node","OSM_ID":8629268852}},{"type":"Feature","id":37,"geometry":{"type":"Point","coordinates":[13.2212674,32.9035084]},"properties":{"FID":37,"NAME":"أبوستة","NAME_EN":"Abu Sitta","RAILWAY":" ","HIGHWAY":"bus_stop","REF":"2136","NETWORK":"Route 21","PUBLIC_TRA":"platform","OSM_TYPE":"node","OSM_ID":8630206217}},{"type":"Feature","id":38,"geometry":{"type":"Point","coordinates":[13.3237325,32.895080400000005]},"properties":{"FID":38,"NAME":" ","NAME_EN":" ","RAILWAY":" ","HIGHWAY":"bus_stop","REF":"2155","NETWORK":"Route 21","PUBLIC_TRA":" ","OSM_TYPE":"node","OSM_ID":8630229447}},{"type":"Feature","id":39,"geometry":{"type":"Point","coordinates":[13.343318200000001,32.8933398]},"properties":{"FID":39,"NAME":"جزيرة الاندلسي","NAME_EN":"Andalusian Roundabout","RAILWAY":" ","HIGHWAY":"bus_stop","REF":"2161","NETWORK":"Route 21","PUBLIC_TRA":"platform","OSM_TYPE":"node","OSM_ID":8630229449}},{"type":"Feature","id":40,"geometry":{"type":"Point","coordinates":[13.359110900000001,32.893619700000002]},"properties":{"FID":40,"NAME":" ","NAME_EN":" ","RAILWAY":" ","HIGHWAY":"bus_stop","REF":"2167","NETWORK":"Route 21","PUBLIC_TRA":" ","OSM_TYPE":"node","OSM_ID":8630229450}},{"type":"Feature","id":41,"geometry":{"type":"Point","coordinates":[13.379582600000001,32.894236400000004]},"properties":{"FID":41,"NAME":" ","NAME_EN":" ","RAILWAY":" ","HIGHWAY":"bus_stop","REF":"2175","NETWORK":"Route 21","PUBLIC_TRA":" ","OSM_TYPE":"node","OSM_ID":8630229451}},{"type":"Feature","id":42,"geometry":{"type":"Point","coordinates":[13.183437700000001,32.896765200000004]},"properties":{"FID":42,"NAME":"الميدان","NAME_EN":"Piazza","RAILWAY":" ","HIGHWAY":"bus_stop","REF":"21","NETWORK":"Route 21","PUBLIC_TRA":"platform","OSM_TYPE":"node","OSM_ID":8630229452}},{"type":"Feature","id":43,"geometry":{"type":"Point","coordinates":[13.187089500000001,32.887097700000005]},"properties":{"FID":43,"NAME":" ","NAME_EN":"Al Firnaj","RAILWAY":" ","HIGHWAY":"bus_stop","REF":"1305","NETWORK":"Route 13","PUBLIC_TRA":"platform","OSM_TYPE":"node","OSM_ID":8630239322}},{"type":"Feature","id":44,"geometry":{"type":"Point","coordinates":[13.1946396,32.878422100000002]},"properties":{"FID":44,"NAME":"طريق السكة","NAME_EN":"Al sekka","RAILWAY":" ","HIGHWAY":"bus_stop","REF":"1309","NETWORK":"Route 13","PUBLIC_TRA":"platform","OSM_TYPE":"node","OSM_ID":8630239323}},{"type":"Feature","id":45,"geometry":{"type":"Point","coordinates":[13.1953692,32.878149200000003]},"properties":{"FID":45,"NAME":"طريق السكة","NAME_EN":"Al sekka","RAILWAY":" ","HIGHWAY":"bus_stop","REF":"1310","NETWORK":"Route 13","PUBLIC_TRA":" ","OSM_TYPE":"node","OSM_ID":8630239324}},{"type":"Feature","id":46,"geometry":{"type":"Point","coordinates":[13.207063700000001,32.8667503]},"properties":{"FID":46,"NAME":"جزيرة المدار","NAME_EN":"Al Madar","RAILWAY":" ","HIGHWAY":"bus_stop","REF":" ","NETWORK":"Route 13","PUBLIC_TRA":"platform","OSM_TYPE":"node","OSM_ID":8633340796}},{"type":"Feature","id":47,"geometry":{"type":"Point","coordinates":[13.2141333,32.863319799999999]},"properties":{"FID":47,"NAME":" ","NAME_EN":"Suq AlThulata","RAILWAY":" ","HIGHWAY":"bus_stop","REF":"1320","NETWORK":"Route 13","PUBLIC_TRA":" ","OSM_TYPE":"node","OSM_ID":8633340797}},{"type":"Feature","id":48,"geometry":{"type":"Point","coordinates":[13.221783500000001,32.8599812]},"properties":{"FID":48,"NAME":"الجامعة","NAME_EN":"University","RAILWAY":" ","HIGHWAY":"bus_stop","REF":"1322","NETWORK":"Route 13","PUBLIC_TRA":"platform","OSM_TYPE":"node","OSM_ID":8633340798}},{"type":"Feature","id":49,"geometry":{"type":"Point","coordinates":[13.1416073,32.858512400000002]},"properties":{"FID":49,"NAME":"النادي الاهلي","NAME_EN":"FC .Al Ahli","RAILWAY":" ","HIGHWAY":"bus_stop","REF":"3203","NETWORK":"Route 32","PUBLIC_TRA":" ","OSM_TYPE":"node","OSM_ID":8635499858}},{"type":"Feature","id":50,"geometry":{"type":"Point","coordinates":[13.1429852,32.8507113]},"properties":{"FID":50,"NAME":"الشارع الكبير","NAME_EN":"Grand Street","RAILWAY":" ","HIGHWAY":"bus_stop","REF":"3204","NETWORK":"Route 32","PUBLIC_TRA":" ","OSM_TYPE":"node","OSM_ID":8635499860}},{"type":"Feature","id":51,"geometry":{"type":"Point","coordinates":[13.288394,32.794347600000002]},"properties":{"FID":51,"NAME":"النادي الدبلوماسي","NAME_EN":"diplomatic club","RAILWAY":" ","HIGHWAY":"bus_stop","REF":" ","NETWORK":"Route 32","PUBLIC_TRA":"platform","OSM_TYPE":"node","OSM_ID":8635597042}},{"type":"Feature","id":52,"geometry":{"type":"Point","coordinates":[13.2476792,32.829483500000002]},"properties":{"FID":52,"NAME":"الجامعة","NAME_EN":"University 2","RAILWAY":" ","HIGHWAY":"bus_stop","REF":"2307","NETWORK":"Route 23","PUBLIC_TRA":"platform","OSM_TYPE":"node","OSM_ID":8635618753}},{"type":"Feature","id":53,"geometry":{"type":"Point","coordinates":[13.201861000000001,32.8692341]},"properties":{"FID":53,"NAME":"النبراس 2","NAME_EN":"Al Nibras 2","RAILWAY":" ","HIGHWAY":"bus_stop","REF":"1316","NETWORK":"Route 13","PUBLIC_TRA":"platform","OSM_TYPE":"node","OSM_ID":8637768658}},{"type":"Feature","id":54,"geometry":{"type":"Point","coordinates":[13.2034494,32.867831899999999]},"properties":{"FID":54,"NAME":"النبراس 1","NAME_EN":"Al Nibras 1","RAILWAY":" ","HIGHWAY":"bus_stop","REF":"1315","NETWORK":"Route 13","PUBLIC_TRA":"platform","OSM_TYPE":"node","OSM_ID":8637768659}},{"type":"Feature","id":55,"geometry":{"type":"Point","coordinates":[13.234432300000002,32.8534796]},"properties":{"FID":55,"NAME":"مدخل الطبيات","NAME_EN":"TMC","RAILWAY":" ","HIGHWAY":"bus_stop","REF":"1328","NETWORK":"Route 13","PUBLIC_TRA":"platform","OSM_TYPE":"node","OSM_ID":8637808447}},{"type":"Feature","id":56,"geometry":{"type":"Point","coordinates":[13.211406,32.864494400000005]},"properties":{"FID":56,"NAME":"وزارة الزراعة","NAME_EN":"AgricMIN","RAILWAY":" ","HIGHWAY":"bus_stop","REF":"1318","NETWORK":"Route 13","PUBLIC_TRA":"platform","OSM_TYPE":"node","OSM_ID":8637808448}},{"type":"Feature","id":57,"geometry":{"type":"Point","coordinates":[13.181048400000002,32.898443700000001]},"properties":{"FID":57,"NAME":"مصرف ليبيا","NAME_EN":"CBL","RAILWAY":" ","HIGHWAY":"bus_stop","REF":"2120","NETWORK":"Route 21","PUBLIC_TRA":"platform","OSM_TYPE":"node","OSM_ID":8637898311}},{"type":"Feature","id":58,"geometry":{"type":"Point","coordinates":[13.246529000000001,32.907903900000001]},"properties":{"FID":58,"NAME":"11 يونيو","NAME_EN":"11  June","RAILWAY":" ","HIGHWAY":"bus_stop","REF":"21","NETWORK":"Route 21","PUBLIC_TRA":"platform","OSM_TYPE":"node","OSM_ID":8637932636}},{"type":"Feature","id":59,"geometry":{"type":"Point","coordinates":[13.221947700000001,32.903391500000005]},"properties":{"FID":59,"NAME":"أبوستة","NAME_EN":"Abu Sitta","RAILWAY":" ","HIGHWAY":"bus_stop","REF":"2129","NETWORK":"Route 21","PUBLIC_TRA":"platform","OSM_TYPE":"node","OSM_ID":8637937703}},{"type":"Feature","id":60,"geometry":{"type":"Point","coordinates":[13.1888889,32.894729000000005]},"properties":{"FID":60,"NAME":"كوبري الودان","NAME_EN":"Al Weddan","RAILWAY":" ","HIGHWAY":"bus_stop","REF":"2126","NETWORK":"Route 21","PUBLIC_TRA":"platform","OSM_TYPE":"node","OSM_ID":8637937705}},{"type":"Feature","id":61,"geometry":{"type":"Point","coordinates":[13.184850900000001,32.896111099999999]},"properties":{"FID":61,"NAME":"الفندق الكبير","NAME_EN":"Grand Hotel","RAILWAY":" ","HIGHWAY":"bus_stop","REF":"2117","NETWORK":"Route 21","PUBLIC_TRA":"platform","OSM_TYPE":"node","OSM_ID":8637937707}},{"type":"Feature","id":62,"geometry":{"type":"Point","coordinates":[13.184572000000001,32.895891500000005]},"properties":{"FID":62,"NAME":"الفندق الكبير","NAME_EN":"Grand Hotel","RAILWAY":" ","HIGHWAY":"bus_stop","REF":"59","NETWORK":"Route 21","PUBLIC_TRA":"platform","OSM_TYPE":"node","OSM_ID":8637937708}},{"type":"Feature","id":63,"geometry":{"type":"Point","coordinates":[13.343602700000002,32.894453300000002]},"properties":{"FID":63,"NAME":"جزيرة الاندلسي","NAME_EN":"Andalusian Roundabout","RAILWAY":" ","HIGHWAY":"bus_stop","REF":"2170","NETWORK":"Route 21","PUBLIC_TRA":"platform","OSM_TYPE":"node","OSM_ID":8637976110}},{"type":"Feature","id":64,"geometry":{"type":"Point","coordinates":[13.1907654,32.878546900000003]},"properties":{"FID":64,"NAME":"شارع الزاوية","NAME_EN":"Hospital","RAILWAY":" ","HIGHWAY":"bus_stop","REF":"3418","NETWORK":"Route 34","PUBLIC_TRA":"platform","OSM_TYPE":"node","OSM_ID":8638053240}},{"type":"Feature","id":65,"geometry":{"type":"Point","coordinates":[13.1822751,32.8800776]},"properties":{"FID":65,"NAME":"الجمهورية","NAME_EN":"Jumhouria","RAILWAY":" ","HIGHWAY":"bus_stop","REF":" ","NETWORK":"Route 34","PUBLIC_TRA":"platform","OSM_TYPE":"node","OSM_ID":8638053241}},{"type":"Feature","id":71,"geometry":{"type":"Point","coordinates":[13.1554342,32.846515700000005]},"properties":{"FID":71,"NAME":"كوبري الحديد","NAME_EN":"AirPort Bridge","RAILWAY":" ","HIGHWAY":"bus_stop","REF":" ","NETWORK":" ","PUBLIC_TRA":"platform","OSM_TYPE":"node","OSM_ID":8647910848}},{"type":"Feature","id":72,"geometry":{"type":"Point","coordinates":[13.267261900000001,32.907687200000005]},"properties":{"FID":72,"NAME":"2156","NAME_EN":" ","RAILWAY":" ","HIGHWAY":"bus_stop","REF":"2156","NETWORK":"Route 21","PUBLIC_TRA":" ","OSM_TYPE":"node","OSM_ID":8651578265}},{"type":"Feature","id":73,"geometry":{"type":"Point","coordinates":[13.190411800000001,32.892830500000002]},"properties":{"FID":73,"NAME":"الودان","NAME_EN":"Al Weddan","RAILWAY":" ","HIGHWAY":"bus_stop","REF":"1302","NETWORK":" ","PUBLIC_TRA":"platform","OSM_TYPE":"node","OSM_ID":8748304491}},{"type":"Feature","id":74,"geometry":{"type":"Point","coordinates":[13.2302333,32.906541799999999]},"properties":{"FID":74,"NAME":" ","NAME_EN":" ","RAILWAY":" ","HIGHWAY":"bus_stop","REF":"2133","NETWORK":"Route 21","PUBLIC_TRA":" ","OSM_TYPE":"node","OSM_ID":8748320548}},{"type":"Feature","id":75,"geometry":{"type":"Point","coordinates":[13.234595500000001,32.852917400000003]},"properties":{"FID":75,"NAME":"مدخل الطبيات","NAME_EN":"TMC","RAILWAY":" ","HIGHWAY":"bus_stop","REF":"1329","NETWORK":"Route 13","PUBLIC_TRA":"platform","OSM_TYPE":"node","OSM_ID":8748327187}},{"type":"Feature","id":76,"geometry":{"type":"Point","coordinates":[13.2063369,32.866244500000001]},"properties":{"FID":76,"NAME":"جزيرة المدار","NAME_EN":"Al Madar","RAILWAY":" ","HIGHWAY":"bus_stop","REF":" ","NETWORK":"Route 13","PUBLIC_TRA":"platform","OSM_TYPE":"node","OSM_ID":8749385251}},{"type":"Feature","id":82,"geometry":{"type":"Point","coordinates":[13.0881322,32.8562595]},"properties":{"FID":82,"NAME":" ","NAME_EN":" ","RAILWAY":" ","HIGHWAY":"bus_stop","REF":"1222","NETWORK":"Route 12","PUBLIC_TRA":" ","OSM_TYPE":"node","OSM_ID":8789604786}},{"type":"Feature","id":83,"geometry":{"type":"Point","coordinates":[13.087745400000001,32.856204400000003]},"properties":{"FID":83,"NAME":" ","NAME_EN":" ","RAILWAY":" ","HIGHWAY":"bus_stop","REF":"1221","NETWORK":"Route 12","PUBLIC_TRA":" ","OSM_TYPE":"node","OSM_ID":8789604787}},{"type":"Feature","id":86,"geometry":{"type":"Point","coordinates":[13.122645500000001,32.865213199999999]},"properties":{"FID":86,"NAME":" ","NAME_EN":"Al Sahm","RAILWAY":" ","HIGHWAY":"bus_stop","REF":"1210","NETWORK":"Route 12","PUBLIC_TRA":"platform","OSM_TYPE":"node","OSM_ID":8789637589}},{"type":"Feature","id":87,"geometry":{"type":"Point","coordinates":[13.117126500000001,32.864404300000004]},"properties":{"FID":87,"NAME":" ","NAME_EN":" ","RAILWAY":" ","HIGHWAY":"bus_stop","REF":"1212","NETWORK":"Route 12","PUBLIC_TRA":" ","OSM_TYPE":"node","OSM_ID":8789637591}},{"type":"Feature","id":88,"geometry":{"type":"Point","coordinates":[13.117037100000001,32.864655900000002]},"properties":{"FID":88,"NAME":" ","NAME_EN":" ","RAILWAY":" ","HIGHWAY":"bus_stop","REF":"1211","NETWORK":"Route 12","PUBLIC_TRA":"platform","OSM_TYPE":"node","OSM_ID":8789637592}},{"type":"Feature","id":89,"geometry":{"type":"Point","coordinates":[13.0800967,32.8493475]},"properties":{"FID":89,"NAME":" ","NAME_EN":" ","RAILWAY":" ","HIGHWAY":"bus_stop","REF":"1225","NETWORK":"Route 12","PUBLIC_TRA":" ","OSM_TYPE":"node","OSM_ID":8789642979}},{"type":"Feature","id":90,"geometry":{"type":"Point","coordinates":[13.079991100000001,32.8486233]},"properties":{"FID":90,"NAME":" ","NAME_EN":" ","RAILWAY":" ","HIGHWAY":"bus_stop","REF":"1226","NETWORK":"Route 12","PUBLIC_TRA":" ","OSM_TYPE":"node","OSM_ID":8789642980}},{"type":"Feature","id":91,"geometry":{"type":"Point","coordinates":[13.083150000000002,32.852482700000003]},"properties":{"FID":91,"NAME":" ","NAME_EN":" ","RAILWAY":" ","HIGHWAY":"bus_stop","REF":"1224","NETWORK":"Route 12","PUBLIC_TRA":" ","OSM_TYPE":"node","OSM_ID":8789642981}},{"type":"Feature","id":92,"geometry":{"type":"Point","coordinates":[13.075811300000002,32.845933299999999]},"properties":{"FID":92,"NAME":" ","NAME_EN":" ","RAILWAY":" ","HIGHWAY":"bus_stop","REF":"1227","NETWORK":"Route 12","PUBLIC_TRA":" ","OSM_TYPE":"node","OSM_ID":8789643942}},{"type":"Feature","id":93,"geometry":{"type":"Point","coordinates":[13.075602400000001,32.845463700000003]},"properties":{"FID":93,"NAME":" ","NAME_EN":" ","RAILWAY":" ","HIGHWAY":"bus_stop","REF":"1228","NETWORK":"Route 12","PUBLIC_TRA":" ","OSM_TYPE":"node","OSM_ID":8789643943}},{"type":"Feature","id":94,"geometry":{"type":"Point","coordinates":[13.123133600000001,32.865649400000002]},"properties":{"FID":94,"NAME":" ","NAME_EN":"Al Sahm","RAILWAY":" ","HIGHWAY":"bus_stop","REF":"1209","NETWORK":"Route 12","PUBLIC_TRA":" ","OSM_TYPE":"node","OSM_ID":8789665567}},{"type":"Feature","id":95,"geometry":{"type":"Point","coordinates":[13.096837000000001,32.8607899]},"properties":{"FID":95,"NAME":" ","NAME_EN":" ","RAILWAY":" ","HIGHWAY":"bus_stop","REF":"1218","NETWORK":"Route 12","PUBLIC_TRA":" ","OSM_TYPE":"node","OSM_ID":8789674573}},{"type":"Feature","id":96,"geometry":{"type":"Point","coordinates":[13.0966041,32.860892300000003]},"properties":{"FID":96,"NAME":" ","NAME_EN":" ","RAILWAY":" ","HIGHWAY":"bus_stop","REF":"1217","NETWORK":"Route 12","PUBLIC_TRA":" ","OSM_TYPE":"node","OSM_ID":8789674574}},{"type":"Feature","id":97,"geometry":{"type":"Point","coordinates":[13.103159700000001,32.862516800000002]},"properties":{"FID":97,"NAME":" ","NAME_EN":" ","RAILWAY":" ","HIGHWAY":"bus_stop","REF":"1215","NETWORK":"Route 12","PUBLIC_TRA":" ","OSM_TYPE":"node","OSM_ID":8789674575}},{"type":"Feature","id":98,"geometry":{"type":"Point","coordinates":[13.149113000000002,32.876361600000003]},"properties":{"FID":98,"NAME":" ","NAME_EN":" ","RAILWAY":" ","HIGHWAY":"bus_stop","REF":"1201","NETWORK":"Route 12","PUBLIC_TRA":"platform","OSM_TYPE":"node","OSM_ID":8789712750}},{"type":"Feature","id":99,"geometry":{"type":"Point","coordinates":[13.1454211,32.874090000000002]},"properties":{"FID":99,"NAME":" ","NAME_EN":" ","RAILWAY":" ","HIGHWAY":"bus_stop","REF":"1203","NETWORK":"Route 12","PUBLIC_TRA":"platform","OSM_TYPE":"node","OSM_ID":8789712978}},{"type":"Feature","id":100,"geometry":{"type":"Point","coordinates":[13.1456011,32.873906699999999]},"properties":{"FID":100,"NAME":" ","NAME_EN":" ","RAILWAY":" ","HIGHWAY":"bus_stop","REF":"1204","NETWORK":"Route 12","PUBLIC_TRA":"platform","OSM_TYPE":"node","OSM_ID":8789712979}},{"type":"Feature","id":101,"geometry":{"type":"Point","coordinates":[13.149299800000001,32.8762148]},"properties":{"FID":101,"NAME":" ","NAME_EN":" ","RAILWAY":" ","HIGHWAY":"bus_stop","REF":"1202","NETWORK":"Route 12","PUBLIC_TRA":"platform","OSM_TYPE":"node","OSM_ID":8789712980}},{"type":"Feature","id":102,"geometry":{"type":"Point","coordinates":[13.139742900000002,32.8619269]},"properties":{"FID":102,"NAME":" ","NAME_EN":" ","RAILWAY":" ","HIGHWAY":"bus_stop","REF":"3202","NETWORK":"Route 32","PUBLIC_TRA":" ","OSM_TYPE":"node","OSM_ID":8789730988}},{"type":"Feature","id":103,"geometry":{"type":"Point","coordinates":[13.1379725,32.850203300000004]},"properties":{"FID":103,"NAME":" ","NAME_EN":" ","RAILWAY":" ","HIGHWAY":"bus_stop","REF":"3205","NETWORK":"Route 32","PUBLIC_TRA":" ","OSM_TYPE":"node","OSM_ID":8789742151}},{"type":"Feature","id":104,"geometry":{"type":"Point","coordinates":[13.157645200000001,32.844304300000005]},"properties":{"FID":104,"NAME":" ","NAME_EN":" ","RAILWAY":" ","HIGHWAY":"bus_stop","REF":"3442","NETWORK":"Route 34","PUBLIC_TRA":" ","OSM_TYPE":"node","OSM_ID":8789746097}},{"type":"Feature","id":105,"geometry":{"type":"Point","coordinates":[13.159852300000001,32.844937900000005]},"properties":{"FID":105,"NAME":" ","NAME_EN":" ","RAILWAY":" ","HIGHWAY":"bus_stop","REF":"3439","NETWORK":"Route 34","PUBLIC_TRA":" ","OSM_TYPE":"node","OSM_ID":8789757087}},{"type":"Feature","id":106,"geometry":{"type":"Point","coordinates":[13.1560258,32.842393999999999]},"properties":{"FID":106,"NAME":" ","NAME_EN":" ","RAILWAY":" ","HIGHWAY":"bus_stop","REF":"3444","NETWORK":"Route 34","PUBLIC_TRA":" ","OSM_TYPE":"node","OSM_ID":8789763118}},{"type":"Feature","id":107,"geometry":{"type":"Point","coordinates":[13.164150800000002,32.843894200000001]},"properties":{"FID":107,"NAME":" ","NAME_EN":" ","RAILWAY":" ","HIGHWAY":"bus_stop","REF":"3440","NETWORK":"Route 34","PUBLIC_TRA":" ","OSM_TYPE":"node","OSM_ID":8789763148}},{"type":"Feature","id":108,"geometry":{"type":"Point","coordinates":[13.1882187,32.880881500000001]},"properties":{"FID":108,"NAME":"شارع الزاوية","NAME_EN":"Hospital","RAILWAY":" ","HIGHWAY":"bus_stop","REF":"3415","NETWORK":"Route 34","PUBLIC_TRA":"platform","OSM_TYPE":"node","OSM_ID":8789766458}},{"type":"Feature","id":109,"geometry":{"type":"Point","coordinates":[13.188635000000001,32.880710700000002]},"properties":{"FID":109,"NAME":"شارع الزاوية","NAME_EN":"Hospital","RAILWAY":" ","HIGHWAY":"bus_stop","REF":"3416","NETWORK":"Route 34","PUBLIC_TRA":"platform","OSM_TYPE":"node","OSM_ID":8789766459}},{"type":"Feature","id":110,"geometry":{"type":"Point","coordinates":[13.1909171,32.878126700000003]},"properties":{"FID":110,"NAME":"شارع الزاوية","NAME_EN":"Hospital","RAILWAY":" ","HIGHWAY":"bus_stop","REF":"3417","NETWORK":"Route 34","PUBLIC_TRA":"platform","OSM_TYPE":"node","OSM_ID":8789766460}},{"type":"Feature","id":111,"geometry":{"type":"Point","coordinates":[13.171844200000001,32.853019600000003]},"properties":{"FID":111,"NAME":" ","NAME_EN":" ","RAILWAY":" ","HIGHWAY":"bus_stop","REF":"3431","NETWORK":"Route 34","PUBLIC_TRA":" ","OSM_TYPE":"node","OSM_ID":8789770134}},{"type":"Feature","id":112,"geometry":{"type":"Point","coordinates":[13.171892000000001,32.854164300000001]},"properties":{"FID":112,"NAME":" ","NAME_EN":" ","RAILWAY":" ","HIGHWAY":"bus_stop","REF":"3432","NETWORK":"Route 34","PUBLIC_TRA":" ","OSM_TYPE":"node","OSM_ID":8789770135}},{"type":"Feature","id":113,"geometry":{"type":"Point","coordinates":[13.1716689,32.8518124]},"properties":{"FID":113,"NAME":" ","NAME_EN":" ","RAILWAY":" ","HIGHWAY":"bus_stop","REF":"3433","NETWORK":"Route 34","PUBLIC_TRA":" ","OSM_TYPE":"node","OSM_ID":8789781802}},{"type":"Feature","id":114,"geometry":{"type":"Point","coordinates":[13.171159800000002,32.851953399999999]},"properties":{"FID":114,"NAME":" ","NAME_EN":" ","RAILWAY":" ","HIGHWAY":"bus_stop","REF":"3434","NETWORK":"Route 34","PUBLIC_TRA":" ","OSM_TYPE":"node","OSM_ID":8789781803}},{"type":"Feature","id":115,"geometry":{"type":"Point","coordinates":[13.178418000000001,32.866063700000005]},"properties":{"FID":115,"NAME":" ","NAME_EN":" ","RAILWAY":" ","HIGHWAY":"bus_stop","REF":"3426","NETWORK":"Route 34","PUBLIC_TRA":" ","OSM_TYPE":"node","OSM_ID":8789781996}},{"type":"Feature","id":116,"geometry":{"type":"Point","coordinates":[13.1678528,32.843686400000003]},"properties":{"FID":116,"NAME":" ","NAME_EN":" ","RAILWAY":" ","HIGHWAY":"bus_stop","REF":"3438","NETWORK":"Route 34","PUBLIC_TRA":" ","OSM_TYPE":"node","OSM_ID":8789787119}},{"type":"Feature","id":117,"geometry":{"type":"Point","coordinates":[13.169653400000001,32.847473400000005]},"properties":{"FID":117,"NAME":" ","NAME_EN":" ","RAILWAY":" ","HIGHWAY":"bus_stop","REF":"3435","NETWORK":"Route 34","PUBLIC_TRA":" ","OSM_TYPE":"node","OSM_ID":8789794886}},{"type":"Feature","id":118,"geometry":{"type":"Point","coordinates":[13.169425700000001,32.847590799999999]},"properties":{"FID":118,"NAME":" ","NAME_EN":" ","RAILWAY":" ","HIGHWAY":"bus_stop","REF":"3436","NETWORK":"Route 34","PUBLIC_TRA":" ","OSM_TYPE":"node","OSM_ID":8789794887}},{"type":"Feature","id":119,"geometry":{"type":"Point","coordinates":[13.176798700000001,32.862608999999999]},"properties":{"FID":119,"NAME":" ","NAME_EN":" ","RAILWAY":" ","HIGHWAY":"bus_stop","REF":"3427","NETWORK":"Route 34","PUBLIC_TRA":" ","OSM_TYPE":"node","OSM_ID":8789797878}},{"type":"Feature","id":120,"geometry":{"type":"Point","coordinates":[13.176558600000002,32.862670100000003]},"properties":{"FID":120,"NAME":" ","NAME_EN":" ","RAILWAY":" ","HIGHWAY":"bus_stop","REF":"3428","NETWORK":"Route 34","PUBLIC_TRA":" ","OSM_TYPE":"node","OSM_ID":8789797879}},{"type":"Feature","id":121,"geometry":{"type":"Point","coordinates":[13.174015300000001,32.858617100000004]},"properties":{"FID":121,"NAME":" ","NAME_EN":" ","RAILWAY":" ","HIGHWAY":"bus_stop","REF":"3430","NETWORK":"Route 34","PUBLIC_TRA":" ","OSM_TYPE":"node","OSM_ID":8789797880}},{"type":"Feature","id":122,"geometry":{"type":"Point","coordinates":[13.174238900000001,32.858422000000004]},"properties":{"FID":122,"NAME":" ","NAME_EN":" ","RAILWAY":" ","HIGHWAY":"bus_stop","REF":"3429","NETWORK":"Route 34","PUBLIC_TRA":" ","OSM_TYPE":"node","OSM_ID":8789797881}},{"type":"Feature","id":123,"geometry":{"type":"Point","coordinates":[13.178851000000002,32.866448000000005]},"properties":{"FID":123,"NAME":" ","NAME_EN":" ","RAILWAY":" ","HIGHWAY":"bus_stop","REF":"3425","NETWORK":"Route 34","PUBLIC_TRA":" ","OSM_TYPE":"node","OSM_ID":8789797882}},{"type":"Feature","id":124,"geometry":{"type":"Point","coordinates":[13.191660300000001,32.8735195]},"properties":{"FID":124,"NAME":" ","NAME_EN":" ","RAILWAY":" ","HIGHWAY":"bus_stop","REF":"3419","NETWORK":"Route 34","PUBLIC_TRA":" ","OSM_TYPE":"node","OSM_ID":8789803974}},{"type":"Feature","id":125,"geometry":{"type":"Point","coordinates":[13.191829700000001,32.872469700000003]},"properties":{"FID":125,"NAME":" ","NAME_EN":" ","RAILWAY":" ","HIGHWAY":"bus_stop","REF":"3420","NETWORK":"Route 34","PUBLIC_TRA":" ","OSM_TYPE":"node","OSM_ID":8789803975}},{"type":"Feature","id":126,"geometry":{"type":"Point","coordinates":[13.191365300000001,32.870044300000004]},"properties":{"FID":126,"NAME":" ","NAME_EN":" ","RAILWAY":" ","HIGHWAY":"bus_stop","REF":"3422","NETWORK":"Route 34","PUBLIC_TRA":" ","OSM_TYPE":"node","OSM_ID":8789803976}},{"type":"Feature","id":127,"geometry":{"type":"Point","coordinates":[13.188208300000001,32.870339200000004]},"properties":{"FID":127,"NAME":" ","NAME_EN":" ","RAILWAY":" ","HIGHWAY":"bus_stop","REF":"3424","NETWORK":"Route 34","PUBLIC_TRA":" ","OSM_TYPE":"node","OSM_ID":8789803977}},{"type":"Feature","id":128,"geometry":{"type":"Point","coordinates":[13.187280100000001,32.867852900000003]},"properties":{"FID":128,"NAME":" ","NAME_EN":" ","RAILWAY":" ","HIGHWAY":"bus_stop","REF":"3423","NETWORK":"Route 34","PUBLIC_TRA":" ","OSM_TYPE":"node","OSM_ID":8789803978}},{"type":"Feature","id":129,"geometry":{"type":"Point","coordinates":[13.187318600000001,32.867528800000002]},"properties":{"FID":129,"NAME":" ","NAME_EN":" ","RAILWAY":" ","HIGHWAY":"bus_stop","REF":"3421","NETWORK":"Route 34","PUBLIC_TRA":" ","OSM_TYPE":"node","OSM_ID":8789803979}},{"type":"Feature","id":130,"geometry":{"type":"Point","coordinates":[13.162529000000001,32.881417900000002]},"properties":{"FID":130,"NAME":" ","NAME_EN":" ","RAILWAY":" ","HIGHWAY":"bus_stop","REF":"3404","NETWORK":"Route 34","PUBLIC_TRA":"platform","OSM_TYPE":"node","OSM_ID":8790139535}},{"type":"Feature","id":131,"geometry":{"type":"Point","coordinates":[13.169860900000002,32.880139300000003]},"properties":{"FID":131,"NAME":" ","NAME_EN":" ","RAILWAY":" ","HIGHWAY":"bus_stop","REF":"3407","NETWORK":"Route 34","PUBLIC_TRA":" ","OSM_TYPE":"node","OSM_ID":8790139536}},{"type":"Feature","id":132,"geometry":{"type":"Point","coordinates":[13.176098300000001,32.879661800000001]},"properties":{"FID":132,"NAME":" ","NAME_EN":" ","RAILWAY":" ","HIGHWAY":"bus_stop","REF":"3410","NETWORK":"Route 34","PUBLIC_TRA":" ","OSM_TYPE":"node","OSM_ID":8790139537}},{"type":"Feature","id":133,"geometry":{"type":"Point","coordinates":[13.185613700000001,32.8807866]},"properties":{"FID":133,"NAME":" ","NAME_EN":" ","RAILWAY":" ","HIGHWAY":"bus_stop","REF":"3413","NETWORK":"Route 34","PUBLIC_TRA":"platform","OSM_TYPE":"node","OSM_ID":8790139538}},{"type":"Feature","id":134,"geometry":{"type":"Point","coordinates":[13.162537700000001,32.881236999999999]},"properties":{"FID":134,"NAME":" ","NAME_EN":" ","RAILWAY":" ","HIGHWAY":"bus_stop","REF":"3403","NETWORK":"Route 34","PUBLIC_TRA":" ","OSM_TYPE":"node","OSM_ID":8790139539}},{"type":"Feature","id":135,"geometry":{"type":"Point","coordinates":[13.166326100000001,32.880754500000002]},"properties":{"FID":135,"NAME":" ","NAME_EN":" ","RAILWAY":" ","HIGHWAY":"bus_stop","REF":"3405","NETWORK":"Route 34","PUBLIC_TRA":" ","OSM_TYPE":"node","OSM_ID":8790139540}},{"type":"Feature","id":136,"geometry":{"type":"Point","coordinates":[13.176074000000002,32.879478900000002]},"properties":{"FID":136,"NAME":" ","NAME_EN":" ","RAILWAY":" ","HIGHWAY":"bus_stop","REF":"3409","NETWORK":"Route 34","PUBLIC_TRA":" ","OSM_TYPE":"node","OSM_ID":8790139541}},{"type":"Feature","id":137,"geometry":{"type":"Point","coordinates":[13.1663309,32.880911099999999]},"properties":{"FID":137,"NAME":" ","NAME_EN":" ","RAILWAY":" ","HIGHWAY":"bus_stop","REF":"3406","NETWORK":"Route 34","PUBLIC_TRA":" ","OSM_TYPE":"node","OSM_ID":8790139543}},{"type":"Feature","id":138,"geometry":{"type":"Point","coordinates":[13.1699199,32.880265900000005]},"properties":{"FID":138,"NAME":" ","NAME_EN":" ","RAILWAY":" ","HIGHWAY":"bus_stop","REF":"3408","NETWORK":"Route 34","PUBLIC_TRA":" ","OSM_TYPE":"node","OSM_ID":8790139544}},{"type":"Feature","id":139,"geometry":{"type":"Point","coordinates":[13.1855153,32.880915900000005]},"properties":{"FID":139,"NAME":" ","NAME_EN":" ","RAILWAY":" ","HIGHWAY":"bus_stop","REF":"3414","NETWORK":"Route 34","PUBLIC_TRA":"platform","OSM_TYPE":"node","OSM_ID":8790139546}},{"type":"Feature","id":140,"geometry":{"type":"Point","coordinates":[13.1904018,32.890588700000002]},"properties":{"FID":140,"NAME":"الظهرة","NAME_EN":"Addahar","RAILWAY":" ","HIGHWAY":"bus_stop","REF":"1304","NETWORK":" ","PUBLIC_TRA":"platform","OSM_TYPE":"node","OSM_ID":8790142781}},{"type":"Feature","id":141,"geometry":{"type":"Point","coordinates":[13.1878232,32.8875253]},"properties":{"FID":141,"NAME":" ","NAME_EN":" ","RAILWAY":" ","HIGHWAY":"bus_stop","REF":"1306","NETWORK":"Route 13","PUBLIC_TRA":"platform","OSM_TYPE":"node","OSM_ID":8790142782}},{"type":"Feature","id":142,"geometry":{"type":"Point","coordinates":[13.160361900000002,32.8813958]},"properties":{"FID":142,"NAME":" ","NAME_EN":" ","RAILWAY":" ","HIGHWAY":"bus_stop","REF":"3401","NETWORK":"Route 34","PUBLIC_TRA":"platform","OSM_TYPE":"node","OSM_ID":8790150550}},{"type":"Feature","id":143,"geometry":{"type":"Point","coordinates":[13.160418300000002,32.8815478]},"properties":{"FID":143,"NAME":" ","NAME_EN":" ","RAILWAY":" ","HIGHWAY":"bus_stop","REF":"3402","NETWORK":"Route 34","PUBLIC_TRA":" ","OSM_TYPE":"node","OSM_ID":8790150551}},{"type":"Feature","id":144,"geometry":{"type":"Point","coordinates":[13.213629600000001,32.863278600000001]},"properties":{"FID":144,"NAME":" ","NAME_EN":"Suq AlThulata","RAILWAY":" ","HIGHWAY":"bus_stop","REF":"1319","NETWORK":"Route 13","PUBLIC_TRA":" ","OSM_TYPE":"node","OSM_ID":8790177016}},{"type":"Feature","id":145,"geometry":{"type":"Point","coordinates":[13.1887623,32.894383900000001]},"properties":{"FID":145,"NAME":"كوبري الودان","NAME_EN":"Al Weddan","RAILWAY":" ","HIGHWAY":"bus_stop","REF":"2119","NETWORK":"Route 21","PUBLIC_TRA":"platform","OSM_TYPE":"node","OSM_ID":8790177471}},{"type":"Feature","id":146,"geometry":{"type":"Point","coordinates":[13.190779600000001,32.8937247]},"properties":{"FID":146,"NAME":"كوبري الودان","NAME_EN":"Al Weddan","RAILWAY":" ","HIGHWAY":"bus_stop","REF":"4103","NETWORK":"Route 41","PUBLIC_TRA":"platform","OSM_TYPE":"node","OSM_ID":8790177472}},{"type":"Feature","id":147,"geometry":{"type":"Point","coordinates":[13.192952700000001,32.880883900000001]},"properties":{"FID":147,"NAME":" ","NAME_EN":" ","RAILWAY":" ","HIGHWAY":"bus_stop","REF":"1308","NETWORK":"Route 13","PUBLIC_TRA":"platform","OSM_TYPE":"node","OSM_ID":8790179541}},{"type":"Feature","id":148,"geometry":{"type":"Point","coordinates":[13.1927786,32.8807501]},"properties":{"FID":148,"NAME":" ","NAME_EN":" ","RAILWAY":" ","HIGHWAY":"bus_stop","REF":"1307","NETWORK":"Route 13","PUBLIC_TRA":"platform","OSM_TYPE":"node","OSM_ID":8790179542}},{"type":"Feature","id":149,"geometry":{"type":"Point","coordinates":[13.200136100000002,32.870746100000005]},"properties":{"FID":149,"NAME":" ","NAME_EN":" ","RAILWAY":" ","HIGHWAY":"bus_stop","REF":"1314","NETWORK":"Route 13","PUBLIC_TRA":" ","OSM_TYPE":"node","OSM_ID":8790197422}},{"type":"Feature","id":150,"geometry":{"type":"Point","coordinates":[13.200054900000001,32.869607900000005]},"properties":{"FID":150,"NAME":" ","NAME_EN":" ","RAILWAY":" ","HIGHWAY":"bus_stop","REF":"1313","NETWORK":"Route 13","PUBLIC_TRA":" ","OSM_TYPE":"node","OSM_ID":8790197423}},{"type":"Feature","id":151,"geometry":{"type":"Point","coordinates":[13.2099747,32.864752100000004]},"properties":{"FID":151,"NAME":" ","NAME_EN":"Al Nibras 1","RAILWAY":" ","HIGHWAY":"bus_stop","REF":"1317","NETWORK":"Route 13","PUBLIC_TRA":" ","OSM_TYPE":"node","OSM_ID":8790198176}},{"type":"Feature","id":152,"geometry":{"type":"Point","coordinates":[13.223083600000001,32.858947700000002]},"properties":{"FID":152,"NAME":"الجامعة","NAME_EN":"University","RAILWAY":" ","HIGHWAY":"bus_stop","REF":"1321","NETWORK":"Route 13","PUBLIC_TRA":"platform","OSM_TYPE":"node","OSM_ID":8790320242}},{"type":"Feature","id":153,"geometry":{"type":"Point","coordinates":[13.226899600000001,32.857644300000004]},"properties":{"FID":153,"NAME":"الجامعة","NAME_EN":"University","RAILWAY":" ","HIGHWAY":"bus_stop","REF":"1324","NETWORK":"Route 13","PUBLIC_TRA":"platform","OSM_TYPE":"node","OSM_ID":8790320243}},{"type":"Feature","id":154,"geometry":{"type":"Point","coordinates":[13.227515100000002,32.856964900000001]},"properties":{"FID":154,"NAME":"الجامعة","NAME_EN":"University","RAILWAY":" ","HIGHWAY":"bus_stop","REF":"1323","NETWORK":"Route 13","PUBLIC_TRA":"platform","OSM_TYPE":"node","OSM_ID":8790320244}},{"type":"Feature","id":155,"geometry":{"type":"Point","coordinates":[13.231045400000001,32.855327800000005]},"properties":{"FID":155,"NAME":"الطبي","NAME_EN":"University","RAILWAY":" ","HIGHWAY":"bus_stop","REF":"1327","NETWORK":"Route 13","PUBLIC_TRA":"platform","OSM_TYPE":"node","OSM_ID":8790322924}},{"type":"Feature","id":156,"geometry":{"type":"Point","coordinates":[13.231413300000002,32.855468700000003]},"properties":{"FID":156,"NAME":"الطبي","NAME_EN":"University","RAILWAY":" ","HIGHWAY":"bus_stop","REF":"1326","NETWORK":"Route 13","PUBLIC_TRA":"platform","OSM_TYPE":"node","OSM_ID":8790322925}},{"type":"Feature","id":157,"geometry":{"type":"Point","coordinates":[13.229819900000001,32.855901600000003]},"properties":{"FID":157,"NAME":"الطبي","NAME_EN":"University","RAILWAY":" ","HIGHWAY":"bus_stop","REF":"1325","NETWORK":"Route 13","PUBLIC_TRA":"platform","OSM_TYPE":"node","OSM_ID":8790322926}},{"type":"Feature","id":158,"geometry":{"type":"Point","coordinates":[13.238533700000001,32.8503179]},"properties":{"FID":158,"NAME":" ","NAME_EN":" ","RAILWAY":" ","HIGHWAY":"bus_stop","REF":"1331","NETWORK":"Route 13","PUBLIC_TRA":" ","OSM_TYPE":"node","OSM_ID":8790359641}},{"type":"Feature","id":159,"geometry":{"type":"Point","coordinates":[13.243825300000001,32.843465100000003]},"properties":{"FID":159,"NAME":" ","NAME_EN":" ","RAILWAY":" ","HIGHWAY":"bus_stop","REF":"8303","NETWORK":"Route 83","PUBLIC_TRA":" ","OSM_TYPE":"node","OSM_ID":8790361851}},{"type":"Feature","id":160,"geometry":{"type":"Point","coordinates":[13.240757200000001,32.846979400000002]},"properties":{"FID":160,"NAME":" ","NAME_EN":" ","RAILWAY":" ","HIGHWAY":"bus_stop","REF":"8301","NETWORK":"Route 83","PUBLIC_TRA":" ","OSM_TYPE":"node","OSM_ID":8790361852}},{"type":"Feature","id":161,"geometry":{"type":"Point","coordinates":[13.2466527,32.841048700000002]},"properties":{"FID":161,"NAME":" ","NAME_EN":" ","RAILWAY":" ","HIGHWAY":"bus_stop","REF":"8306","NETWORK":"Route 83","PUBLIC_TRA":" ","OSM_TYPE":"node","OSM_ID":8790361853}},{"type":"Feature","id":162,"geometry":{"type":"Point","coordinates":[13.241415600000002,32.846693399999999]},"properties":{"FID":162,"NAME":" ","NAME_EN":" ","RAILWAY":" ","HIGHWAY":"bus_stop","REF":"8302","NETWORK":"Route 83","PUBLIC_TRA":"platform","OSM_TYPE":"node","OSM_ID":8790361854}},{"type":"Feature","id":163,"geometry":{"type":"Point","coordinates":[13.2465747,32.840733900000004]},"properties":{"FID":163,"NAME":" ","NAME_EN":" ","RAILWAY":" ","HIGHWAY":"bus_stop","REF":"8305","NETWORK":"Route 83","PUBLIC_TRA":" ","OSM_TYPE":"node","OSM_ID":8790361855}},{"type":"Feature","id":164,"geometry":{"type":"Point","coordinates":[13.243621900000001,32.844172400000005]},"properties":{"FID":164,"NAME":" ","NAME_EN":" ","RAILWAY":" ","HIGHWAY":"bus_stop","REF":"8304","NETWORK":"Route 83","PUBLIC_TRA":" ","OSM_TYPE":"node","OSM_ID":8790361856}},{"type":"Feature","id":165,"geometry":{"type":"Point","coordinates":[13.249725900000001,32.8379653]},"properties":{"FID":165,"NAME":" ","NAME_EN":" ","RAILWAY":" ","HIGHWAY":"bus_stop","REF":"8308","NETWORK":"Route 83","PUBLIC_TRA":" ","OSM_TYPE":"node","OSM_ID":8790375871}},{"type":"Feature","id":166,"geometry":{"type":"Point","coordinates":[13.2465747,32.840733900000004]},"properties":{"FID":166,"NAME":" ","NAME_EN":" ","RAILWAY":" ","HIGHWAY":"bus_stop","REF":"3429","NETWORK":"Route 34","PUBLIC_TRA":" ","OSM_TYPE":"node","OSM_ID":8790375872}},{"type":"Feature","id":167,"geometry":{"type":"Point","coordinates":[13.249578900000001,32.837809900000003]},"properties":{"FID":167,"NAME":" ","NAME_EN":" ","RAILWAY":" ","HIGHWAY":"bus_stop","REF":"8307","NETWORK":"Route 83","PUBLIC_TRA":" ","OSM_TYPE":"node","OSM_ID":8790375873}},{"type":"Feature","id":168,"geometry":{"type":"Point","coordinates":[13.253947700000001,32.829307800000002]},"properties":{"FID":168,"NAME":" ","NAME_EN":" ","RAILWAY":" ","HIGHWAY":"bus_stop","REF":"8311","NETWORK":"Route 83","PUBLIC_TRA":" ","OSM_TYPE":"node","OSM_ID":8790375920}},{"type":"Feature","id":169,"geometry":{"type":"Point","coordinates":[13.253311700000001,32.8331686]},"properties":{"FID":169,"NAME":" ","NAME_EN":" ","RAILWAY":" ","HIGHWAY":"bus_stop","REF":"8310","NETWORK":"Route 83","PUBLIC_TRA":" ","OSM_TYPE":"node","OSM_ID":8790383231}},{"type":"Feature","id":170,"geometry":{"type":"Point","coordinates":[13.253056200000001,32.833206199999999]},"properties":{"FID":170,"NAME":" ","NAME_EN":" ","RAILWAY":" ","HIGHWAY":"bus_stop","REF":"8309","NETWORK":"Route 83","PUBLIC_TRA":" ","OSM_TYPE":"node","OSM_ID":8790383232}},{"type":"Feature","id":171,"geometry":{"type":"Point","coordinates":[13.249242800000001,32.825948199999999]},"properties":{"FID":171,"NAME":"الجامعة","NAME_EN":"University 2","RAILWAY":" ","HIGHWAY":"bus_stop","REF":"2310","NETWORK":"Route 23","PUBLIC_TRA":"platform","OSM_TYPE":"node","OSM_ID":8791336161}},{"type":"Feature","id":172,"geometry":{"type":"Point","coordinates":[13.247736400000001,32.830883100000001]},"properties":{"FID":172,"NAME":" ","NAME_EN":" ","RAILWAY":" ","HIGHWAY":"bus_stop","REF":"2307","NETWORK":"Route 23","PUBLIC_TRA":"platform","OSM_TYPE":"node","OSM_ID":8791336162}},{"type":"Feature","id":173,"geometry":{"type":"Point","coordinates":[13.246870400000001,32.835071800000001]},"properties":{"FID":173,"NAME":" ","NAME_EN":" ","RAILWAY":" ","HIGHWAY":"bus_stop","REF":"2305","NETWORK":"Route 23","PUBLIC_TRA":"platform","OSM_TYPE":"node","OSM_ID":8791336164}},{"type":"Feature","id":174,"geometry":{"type":"Point","coordinates":[13.245800800000001,32.838206900000003]},"properties":{"FID":174,"NAME":" ","NAME_EN":" ","RAILWAY":" ","HIGHWAY":"bus_stop","REF":"2303","NETWORK":"Route 23","PUBLIC_TRA":"platform","OSM_TYPE":"node","OSM_ID":8791338343}},{"type":"Feature","id":175,"geometry":{"type":"Point","coordinates":[13.287111000000001,32.890009500000005]},"properties":{"FID":175,"NAME":" ","NAME_EN":" ","RAILWAY":" ","HIGHWAY":"bus_stop","REF":"4149","NETWORK":"Route 41","PUBLIC_TRA":" ","OSM_TYPE":"node","OSM_ID":8791398043}},{"type":"Feature","id":176,"geometry":{"type":"Point","coordinates":[13.287137100000001,32.890109800000005]},"properties":{"FID":176,"NAME":" ","NAME_EN":" ","RAILWAY":" ","HIGHWAY":"bus_stop","REF":"4152","NETWORK":"Route 41","PUBLIC_TRA":" ","OSM_TYPE":"node","OSM_ID":8791398044}},{"type":"Feature","id":177,"geometry":{"type":"Point","coordinates":[13.251476200000001,32.826205200000004]},"properties":{"FID":177,"NAME":" ","NAME_EN":" ","RAILWAY":" ","HIGHWAY":"bus_stop","REF":"2309","NETWORK":" ","PUBLIC_TRA":" ","OSM_TYPE":"node","OSM_ID":8791891596}},{"type":"Feature","id":178,"geometry":{"type":"Point","coordinates":[13.252777400000001,32.826380700000001]},"properties":{"FID":178,"NAME":" ","NAME_EN":" ","RAILWAY":" ","HIGHWAY":"bus_stop","REF":"8311","NETWORK":"Route 83","PUBLIC_TRA":" ","OSM_TYPE":"node","OSM_ID":8791891597}},{"type":"Feature","id":179,"geometry":{"type":"Point","coordinates":[13.2552389,32.891083000000002]},"properties":{"FID":179,"NAME":" ","NAME_EN":" ","RAILWAY":" ","HIGHWAY":"bus_stop","REF":"4140","NETWORK":"Route 41","PUBLIC_TRA":" ","OSM_TYPE":"node","OSM_ID":8791891599}},{"type":"Feature","id":180,"geometry":{"type":"Point","coordinates":[13.255279900000001,32.890950000000004]},"properties":{"FID":180,"NAME":" ","NAME_EN":" ","RAILWAY":" ","HIGHWAY":"bus_stop","REF":"4137","NETWORK":"Route 41","PUBLIC_TRA":" ","OSM_TYPE":"node","OSM_ID":8791891600}},{"type":"Feature","id":181,"geometry":{"type":"Point","coordinates":[13.2459243,32.838326900000006]},"properties":{"FID":181,"NAME":" ","NAME_EN":" ","RAILWAY":" ","HIGHWAY":"bus_stop","REF":"2304","NETWORK":"Route 23","PUBLIC_TRA":" ","OSM_TYPE":"node","OSM_ID":8791990206}},{"type":"Feature","id":182,"geometry":{"type":"Point","coordinates":[13.243582100000001,32.842585900000003]},"properties":{"FID":182,"NAME":" ","NAME_EN":" ","RAILWAY":" ","HIGHWAY":"bus_stop","REF":"2302","NETWORK":"Route 23","PUBLIC_TRA":" ","OSM_TYPE":"node","OSM_ID":8791996387}},{"type":"Feature","id":183,"geometry":{"type":"Point","coordinates":[13.243185400000002,32.842679799999999]},"properties":{"FID":183,"NAME":" ","NAME_EN":" ","RAILWAY":" ","HIGHWAY":"bus_stop","REF":"2301","NETWORK":"Route 23","PUBLIC_TRA":" ","OSM_TYPE":"node","OSM_ID":8791996388}},{"type":"Feature","id":184,"geometry":{"type":"Point","coordinates":[13.269673200000002,32.891068300000001]},"properties":{"FID":184,"NAME":" ","NAME_EN":" ","RAILWAY":" ","HIGHWAY":"bus_stop","REF":"4143","NETWORK":"Route 41","PUBLIC_TRA":" ","OSM_TYPE":"node","OSM_ID":8791996389}},{"type":"Feature","id":185,"geometry":{"type":"Point","coordinates":[13.269809200000001,32.891144799999999]},"properties":{"FID":185,"NAME":" ","NAME_EN":" ","RAILWAY":" ","HIGHWAY":"bus_stop","REF":"4146","NETWORK":"Route 41","PUBLIC_TRA":" ","OSM_TYPE":"node","OSM_ID":8791996390}},{"type":"Feature","id":186,"geometry":{"type":"Point","coordinates":[13.274936100000001,32.890697000000003]},"properties":{"FID":186,"NAME":" ","NAME_EN":" ","RAILWAY":" ","HIGHWAY":"bus_stop","REF":"4145","NETWORK":"Route 41","PUBLIC_TRA":" ","OSM_TYPE":"node","OSM_ID":8792009643}},{"type":"Feature","id":187,"geometry":{"type":"Point","coordinates":[13.2750906,32.890783599999999]},"properties":{"FID":187,"NAME":" ","NAME_EN":" ","RAILWAY":" ","HIGHWAY":"bus_stop","REF":"4148","NETWORK":"Route 41","PUBLIC_TRA":" ","OSM_TYPE":"node","OSM_ID":8792009644}},{"type":"Feature","id":188,"geometry":{"type":"Point","coordinates":[13.247179200000001,32.8349148]},"properties":{"FID":188,"NAME":" ","NAME_EN":" ","RAILWAY":" ","HIGHWAY":"bus_stop","REF":"2306","NETWORK":"Route 23","PUBLIC_TRA":" ","OSM_TYPE":"node","OSM_ID":8792009747}},{"type":"Feature","id":189,"geometry":{"type":"Point","coordinates":[13.246959400000001,32.890078600000002]},"properties":{"FID":189,"NAME":" ","NAME_EN":" ","RAILWAY":" ","HIGHWAY":"bus_stop","REF":"4133","NETWORK":"Route 41","PUBLIC_TRA":" ","OSM_TYPE":"node","OSM_ID":8792021597}},{"type":"Feature","id":190,"geometry":{"type":"Point","coordinates":[13.2474784,32.8903508]},"properties":{"FID":190,"NAME":" ","NAME_EN":" ","RAILWAY":" ","HIGHWAY":"bus_stop","REF":"4136","NETWORK":"Route 41","PUBLIC_TRA":" ","OSM_TYPE":"node","OSM_ID":8792021598}},{"type":"Feature","id":191,"geometry":{"type":"Point","coordinates":[13.244303400000002,32.889923800000005]},"properties":{"FID":191,"NAME":" ","NAME_EN":" ","RAILWAY":" ","HIGHWAY":"bus_stop","REF":"4134","NETWORK":"Route 41","PUBLIC_TRA":" ","OSM_TYPE":"node","OSM_ID":8792022913}},{"type":"Feature","id":192,"geometry":{"type":"Point","coordinates":[13.244368100000001,32.889727800000003]},"properties":{"FID":192,"NAME":" ","NAME_EN":" ","RAILWAY":" ","HIGHWAY":"bus_stop","REF":"4131","NETWORK":"Route 41","PUBLIC_TRA":" ","OSM_TYPE":"node","OSM_ID":8792022914}},{"type":"Feature","id":193,"geometry":{"type":"Point","coordinates":[13.263348800000001,32.892111100000001]},"properties":{"FID":193,"NAME":" ","NAME_EN":" ","RAILWAY":" ","HIGHWAY":"bus_stop","REF":"4144","NETWORK":"Route 41","PUBLIC_TRA":" ","OSM_TYPE":"node","OSM_ID":8792027101}},{"type":"Feature","id":194,"geometry":{"type":"Point","coordinates":[13.263466500000002,32.891969000000003]},"properties":{"FID":194,"NAME":" ","NAME_EN":" ","RAILWAY":" ","HIGHWAY":"bus_stop","REF":"4141","NETWORK":"Route 41","PUBLIC_TRA":" ","OSM_TYPE":"node","OSM_ID":8792027102}},{"type":"Feature","id":195,"geometry":{"type":"Point","coordinates":[13.2583748,32.891681600000005]},"properties":{"FID":195,"NAME":" ","NAME_EN":" ","RAILWAY":" ","HIGHWAY":"bus_stop","REF":"4142","NETWORK":"Route 41","PUBLIC_TRA":" ","OSM_TYPE":"node","OSM_ID":8792027103}},{"type":"Feature","id":196,"geometry":{"type":"Point","coordinates":[13.258289400000001,32.891543300000002]},"properties":{"FID":196,"NAME":" ","NAME_EN":" ","RAILWAY":" ","HIGHWAY":"bus_stop","REF":"4139","NETWORK":"Route 41","PUBLIC_TRA":" ","OSM_TYPE":"node","OSM_ID":8792027104}},{"type":"Feature","id":197,"geometry":{"type":"Point","coordinates":[13.279348500000001,32.890559700000004]},"properties":{"FID":197,"NAME":" ","NAME_EN":" ","RAILWAY":" ","HIGHWAY":"bus_stop","REF":"4150","NETWORK":"Route 41","PUBLIC_TRA":" ","OSM_TYPE":"node","OSM_ID":8792029095}},{"type":"Feature","id":198,"geometry":{"type":"Point","coordinates":[13.279321600000001,32.890490800000002]},"properties":{"FID":198,"NAME":" ","NAME_EN":" ","RAILWAY":" ","HIGHWAY":"bus_stop","REF":"4147","NETWORK":"Route 41","PUBLIC_TRA":" ","OSM_TYPE":"node","OSM_ID":8792029096}},{"type":"Feature","id":199,"geometry":{"type":"Point","coordinates":[13.250634300000002,32.890485200000001]},"properties":{"FID":199,"NAME":" ","NAME_EN":" ","RAILWAY":" ","HIGHWAY":"bus_stop","REF":"4138","NETWORK":"Route 41","PUBLIC_TRA":" ","OSM_TYPE":"node","OSM_ID":8792029097}},{"type":"Feature","id":200,"geometry":{"type":"Point","coordinates":[13.250643500000001,32.890290700000001]},"properties":{"FID":200,"NAME":" ","NAME_EN":" ","RAILWAY":" ","HIGHWAY":"bus_stop","REF":"4135","NETWORK":"Route 41","PUBLIC_TRA":" ","OSM_TYPE":"node","OSM_ID":8792029098}},{"type":"Feature","id":201,"geometry":{"type":"Point","coordinates":[13.218337100000001,32.893707300000003]},"properties":{"FID":201,"NAME":" ","NAME_EN":" ","RAILWAY":" ","HIGHWAY":"bus_stop","REF":"4122","NETWORK":"Route 41","PUBLIC_TRA":" ","OSM_TYPE":"node","OSM_ID":8792033732}},{"type":"Feature","id":202,"geometry":{"type":"Point","coordinates":[13.222686000000001,32.892936500000005]},"properties":{"FID":202,"NAME":" ","NAME_EN":" ","RAILWAY":" ","HIGHWAY":"bus_stop","REF":"4124","NETWORK":"Route 41","PUBLIC_TRA":" ","OSM_TYPE":"node","OSM_ID":8792033733}},{"type":"Feature","id":203,"geometry":{"type":"Point","coordinates":[13.2202663,32.892828800000004]},"properties":{"FID":203,"NAME":" ","NAME_EN":" ","RAILWAY":" ","HIGHWAY":"bus_stop","REF":"4121","NETWORK":"Route 41","PUBLIC_TRA":" ","OSM_TYPE":"node","OSM_ID":8792033734}},{"type":"Feature","id":204,"geometry":{"type":"Point","coordinates":[13.2223971,32.892484700000004]},"properties":{"FID":204,"NAME":" ","NAME_EN":" ","RAILWAY":" ","HIGHWAY":"bus_stop","REF":"4123","NETWORK":"Route 41","PUBLIC_TRA":" ","OSM_TYPE":"node","OSM_ID":8792033735}},{"type":"Feature","id":205,"geometry":{"type":"Point","coordinates":[13.231784500000002,32.890364400000003]},"properties":{"FID":205,"NAME":" ","NAME_EN":" ","RAILWAY":" ","HIGHWAY":"bus_stop","REF":"4126","NETWORK":"Route 41","PUBLIC_TRA":" ","OSM_TYPE":"node","OSM_ID":8792052730}},{"type":"Feature","id":206,"geometry":{"type":"Point","coordinates":[13.187932500000001,32.893522100000006]},"properties":{"FID":206,"NAME":"كوبري الودان","NAME_EN":"Al Weddan","RAILWAY":" ","HIGHWAY":"bus_stop","REF":"4101","NETWORK":"Route 41","PUBLIC_TRA":"platform","OSM_TYPE":"node","OSM_ID":8792052735}},{"type":"Feature","id":207,"geometry":{"type":"Point","coordinates":[13.187884400000002,32.893652400000001]},"properties":{"FID":207,"NAME":"كوبري الودان","NAME_EN":"Al Weddan","RAILWAY":" ","HIGHWAY":"bus_stop","REF":"4102","NETWORK":"Route 41","PUBLIC_TRA":"platform","OSM_TYPE":"node","OSM_ID":8792052736}},{"type":"Feature","id":208,"geometry":{"type":"Point","coordinates":[13.238530800000001,32.889569300000005]},"properties":{"FID":208,"NAME":" ","NAME_EN":" ","RAILWAY":" ","HIGHWAY":"bus_stop","REF":"4130","NETWORK":"Route 41","PUBLIC_TRA":" ","OSM_TYPE":"node","OSM_ID":8792053142}},{"type":"Feature","id":209,"geometry":{"type":"Point","coordinates":[13.236849600000001,32.889747200000002]},"properties":{"FID":209,"NAME":" ","NAME_EN":" ","RAILWAY":" ","HIGHWAY":"bus_stop","REF":"4128","NETWORK":"Route 41","PUBLIC_TRA":" ","OSM_TYPE":"node","OSM_ID":8792053143}},{"type":"Feature","id":210,"geometry":{"type":"Point","coordinates":[13.238575800000001,32.889285200000003]},"properties":{"FID":210,"NAME":" ","NAME_EN":" ","RAILWAY":" ","HIGHWAY":"bus_stop","REF":"4127","NETWORK":"Route 41","PUBLIC_TRA":" ","OSM_TYPE":"node","OSM_ID":8792053149}},{"type":"Feature","id":211,"geometry":{"type":"Point","coordinates":[13.225078100000001,32.892266500000005]},"properties":{"FID":211,"NAME":" ","NAME_EN":" ","RAILWAY":" ","HIGHWAY":"bus_stop","REF":"4125","NETWORK":"Route 41","PUBLIC_TRA":" ","OSM_TYPE":"node","OSM_ID":8792111058}},{"type":"Feature","id":212,"geometry":{"type":"Point","coordinates":[13.2141099,32.894221800000004]},"properties":{"FID":212,"NAME":" ","NAME_EN":" ","RAILWAY":" ","HIGHWAY":"bus_stop","REF":"4120","NETWORK":"Route 41","PUBLIC_TRA":" ","OSM_TYPE":"node","OSM_ID":8792117325}},{"type":"Feature","id":213,"geometry":{"type":"Point","coordinates":[13.214578900000001,32.893937200000003]},"properties":{"FID":213,"NAME":" ","NAME_EN":" ","RAILWAY":" ","HIGHWAY":"bus_stop","REF":"4119","NETWORK":"Route 41","PUBLIC_TRA":" ","OSM_TYPE":"node","OSM_ID":8792117326}},{"type":"Feature","id":214,"geometry":{"type":"Point","coordinates":[13.210444300000001,32.894415600000002]},"properties":{"FID":214,"NAME":" ","NAME_EN":" ","RAILWAY":" ","HIGHWAY":"bus_stop","REF":"4118","NETWORK":"Route 41","PUBLIC_TRA":" ","OSM_TYPE":"node","OSM_ID":8792117327}},{"type":"Feature","id":215,"geometry":{"type":"Point","coordinates":[13.2109565,32.894220100000005]},"properties":{"FID":215,"NAME":" ","NAME_EN":" ","RAILWAY":" ","HIGHWAY":"bus_stop","REF":"4117","NETWORK":"Route 41","PUBLIC_TRA":" ","OSM_TYPE":"node","OSM_ID":8792117328}},{"type":"Feature","id":216,"geometry":{"type":"Point","coordinates":[13.2065909,32.893763800000002]},"properties":{"FID":216,"NAME":" ","NAME_EN":" ","RAILWAY":" ","HIGHWAY":"bus_stop","REF":"4116","NETWORK":"Route 41","PUBLIC_TRA":" ","OSM_TYPE":"node","OSM_ID":8792121071}},{"type":"Feature","id":217,"geometry":{"type":"Point","coordinates":[13.2067648,32.893631200000002]},"properties":{"FID":217,"NAME":" ","NAME_EN":" ","RAILWAY":" ","HIGHWAY":"bus_stop","REF":"4115","NETWORK":"Route 41","PUBLIC_TRA":" ","OSM_TYPE":"node","OSM_ID":8792121074}},{"type":"Feature","id":218,"geometry":{"type":"Point","coordinates":[13.203413900000001,32.891469200000003]},"properties":{"FID":218,"NAME":" ","NAME_EN":" ","RAILWAY":" ","HIGHWAY":"bus_stop","REF":"4113","NETWORK":"Route 41","PUBLIC_TRA":" ","OSM_TYPE":"node","OSM_ID":8792126501}},{"type":"Feature","id":219,"geometry":{"type":"Point","coordinates":[13.2030235,32.891459699999999]},"properties":{"FID":219,"NAME":" ","NAME_EN":" ","RAILWAY":" ","HIGHWAY":"bus_stop","REF":"4114","NETWORK":"Route 41","PUBLIC_TRA":" ","OSM_TYPE":"node","OSM_ID":8792126502}},{"type":"Feature","id":220,"geometry":{"type":"Point","coordinates":[13.200267500000001,32.889733700000001]},"properties":{"FID":220,"NAME":" ","NAME_EN":" ","RAILWAY":" ","HIGHWAY":"bus_stop","REF":"4112","NETWORK":"Route 41","PUBLIC_TRA":" ","OSM_TYPE":"node","OSM_ID":8792134096}},{"type":"Feature","id":221,"geometry":{"type":"Point","coordinates":[13.201071800000001,32.889986100000002]},"properties":{"FID":221,"NAME":" ","NAME_EN":" ","RAILWAY":" ","HIGHWAY":"bus_stop","REF":"4111","NETWORK":"Route 41","PUBLIC_TRA":" ","OSM_TYPE":"node","OSM_ID":8792134101}},{"type":"Feature","id":222,"geometry":{"type":"Point","coordinates":[13.1768251,32.900485600000003]},"properties":{"FID":222,"NAME":" ","NAME_EN":" ","RAILWAY":" ","HIGHWAY":"bus_stop","REF":"2116","NETWORK":"طريق 21","PUBLIC_TRA":"platform","OSM_TYPE":"node","OSM_ID":8792134730}},{"type":"Feature","id":223,"geometry":{"type":"Point","coordinates":[13.1745026,32.901567900000003]},"properties":{"FID":223,"NAME":" ","NAME_EN":" ","RAILWAY":" ","HIGHWAY":"bus_stop","REF":"2114","NETWORK":"Route 21","PUBLIC_TRA":" ","OSM_TYPE":"node","OSM_ID":8792134731}},{"type":"Feature","id":224,"geometry":{"type":"Point","coordinates":[13.1979302,32.8914635]},"properties":{"FID":224,"NAME":" ","NAME_EN":" ","RAILWAY":" ","HIGHWAY":"bus_stop","REF":"4110","NETWORK":"Route 41","PUBLIC_TRA":" ","OSM_TYPE":"node","OSM_ID":8792146468}},{"type":"Feature","id":225,"geometry":{"type":"Point","coordinates":[13.197097100000001,32.893123500000002]},"properties":{"FID":225,"NAME":" ","NAME_EN":" ","RAILWAY":" ","HIGHWAY":"bus_stop","REF":"4107","NETWORK":"Route 41","PUBLIC_TRA":" ","OSM_TYPE":"node","OSM_ID":8792146469}},{"type":"Feature","id":226,"geometry":{"type":"Point","coordinates":[13.197279900000002,32.893428100000001]},"properties":{"FID":226,"NAME":" ","NAME_EN":" ","RAILWAY":" ","HIGHWAY":"bus_stop","REF":"4108","NETWORK":"Route 41","PUBLIC_TRA":" ","OSM_TYPE":"node","OSM_ID":8792146470}},{"type":"Feature","id":227,"geometry":{"type":"Point","coordinates":[13.197691200000001,32.891005499999999]},"properties":{"FID":227,"NAME":" ","NAME_EN":" ","RAILWAY":" ","HIGHWAY":"bus_stop","REF":"4109","NETWORK":"Route 41","PUBLIC_TRA":" ","OSM_TYPE":"node","OSM_ID":8792146471}},{"type":"Feature","id":228,"geometry":{"type":"Point","coordinates":[13.194160100000001,32.8942409]},"properties":{"FID":228,"NAME":" ","NAME_EN":" ","RAILWAY":" ","HIGHWAY":"bus_stop","REF":"4105","NETWORK":"Route 41","PUBLIC_TRA":" ","OSM_TYPE":"node","OSM_ID":8792146635}},{"type":"Feature","id":229,"geometry":{"type":"Point","coordinates":[13.194204500000001,32.894486000000001]},"properties":{"FID":229,"NAME":" ","NAME_EN":" ","RAILWAY":" ","HIGHWAY":"bus_stop","REF":"4106","NETWORK":"Route 41","PUBLIC_TRA":" ","OSM_TYPE":"node","OSM_ID":8792146636}},{"type":"Feature","id":230,"geometry":{"type":"Point","coordinates":[13.180992900000001,32.898111900000004]},"properties":{"FID":230,"NAME":"مصرف ليبيا","NAME_EN":"CBL","RAILWAY":" ","HIGHWAY":"bus_stop","REF":"2115","NETWORK":"Route 21","PUBLIC_TRA":"platform","OSM_TYPE":"node","OSM_ID":8792147888}},{"type":"Feature","id":231,"geometry":{"type":"Point","coordinates":[13.178319800000001,32.899044600000003]},"properties":{"FID":231,"NAME":" ","NAME_EN":" ","RAILWAY":" ","HIGHWAY":"bus_stop","REF":"2118","NETWORK":"Route 21","PUBLIC_TRA":" ","OSM_TYPE":"node","OSM_ID":8792147889}},{"type":"Feature","id":232,"geometry":{"type":"Point","coordinates":[13.176841600000001,32.899891199999999]},"properties":{"FID":232,"NAME":" ","NAME_EN":" ","RAILWAY":" ","HIGHWAY":"bus_stop","REF":"2113","NETWORK":"طريق 21","PUBLIC_TRA":"platform","OSM_TYPE":"node","OSM_ID":8792147890}},{"type":"Feature","id":233,"geometry":{"type":"Point","coordinates":[13.176619100000002,32.901027500000005]},"properties":{"FID":233,"NAME":" ","NAME_EN":" ","RAILWAY":" ","HIGHWAY":"bus_stop","REF":"2116","NETWORK":"طريق 21","PUBLIC_TRA":"platform","OSM_TYPE":"node","OSM_ID":8792161019}},{"type":"Feature","id":234,"geometry":{"type":"Point","coordinates":[13.186737500000001,32.844695300000005]},"properties":{"FID":234,"NAME":" ","NAME_EN":" ","RAILWAY":" ","HIGHWAY":"bus_stop","REF":"3450","NETWORK":"Route 34","PUBLIC_TRA":" ","OSM_TYPE":"node","OSM_ID":8792708437}},{"type":"Feature","id":235,"geometry":{"type":"Point","coordinates":[13.188737000000001,32.844986400000003]},"properties":{"FID":235,"NAME":" ","NAME_EN":" ","RAILWAY":" ","HIGHWAY":"bus_stop","REF":"3452","NETWORK":"Route 34","PUBLIC_TRA":" ","OSM_TYPE":"node","OSM_ID":8792708438}},{"type":"Feature","id":236,"geometry":{"type":"Point","coordinates":[13.177362700000002,32.843273700000005]},"properties":{"FID":236,"NAME":" ","NAME_EN":" ","RAILWAY":" ","HIGHWAY":"bus_stop","REF":"3446","NETWORK":"Route 34","PUBLIC_TRA":" ","OSM_TYPE":"node","OSM_ID":8792708439}},{"type":"Feature","id":237,"geometry":{"type":"Point","coordinates":[13.182579200000001,32.844124800000003]},"properties":{"FID":237,"NAME":" ","NAME_EN":" ","RAILWAY":" ","HIGHWAY":"bus_stop","REF":"3448","NETWORK":"Route 34","PUBLIC_TRA":" ","OSM_TYPE":"node","OSM_ID":8792708440}},{"type":"Feature","id":238,"geometry":{"type":"Point","coordinates":[13.188695000000001,32.845142100000004]},"properties":{"FID":238,"NAME":" ","NAME_EN":" ","RAILWAY":" ","HIGHWAY":"bus_stop","REF":"3453","NETWORK":"Route 34","PUBLIC_TRA":" ","OSM_TYPE":"node","OSM_ID":8792708441}},{"type":"Feature","id":239,"geometry":{"type":"Point","coordinates":[13.174171500000002,32.842901099999999]},"properties":{"FID":239,"NAME":" ","NAME_EN":" ","RAILWAY":" ","HIGHWAY":"bus_stop","REF":"3444","NETWORK":"Route 34","PUBLIC_TRA":" ","OSM_TYPE":"node","OSM_ID":8792708442}},{"type":"Feature","id":240,"geometry":{"type":"Point","coordinates":[13.182553100000002,32.844226200000001]},"properties":{"FID":240,"NAME":" ","NAME_EN":" ","RAILWAY":" ","HIGHWAY":"bus_stop","REF":"3449","NETWORK":"Route 34","PUBLIC_TRA":" ","OSM_TYPE":"node","OSM_ID":8792708443}},{"type":"Feature","id":241,"geometry":{"type":"Point","coordinates":[13.186736000000002,32.844855899999999]},"properties":{"FID":241,"NAME":" ","NAME_EN":" ","RAILWAY":" ","HIGHWAY":"bus_stop","REF":"3451","NETWORK":"Route 34","PUBLIC_TRA":" ","OSM_TYPE":"node","OSM_ID":8792708444}},{"type":"Feature","id":242,"geometry":{"type":"Point","coordinates":[13.174106400000001,32.843128499999999]},"properties":{"FID":242,"NAME":" ","NAME_EN":" ","RAILWAY":" ","HIGHWAY":"bus_stop","REF":"3445","NETWORK":"Route 34","PUBLIC_TRA":" ","OSM_TYPE":"node","OSM_ID":8792708445}},{"type":"Feature","id":243,"geometry":{"type":"Point","coordinates":[13.1773062,32.8435202]},"properties":{"FID":243,"NAME":" ","NAME_EN":" ","RAILWAY":" ","HIGHWAY":"bus_stop","REF":"3447","NETWORK":"Route 34","PUBLIC_TRA":" ","OSM_TYPE":"node","OSM_ID":8792708446}},{"type":"Feature","id":244,"geometry":{"type":"Point","coordinates":[13.169771500000001,32.898346400000001]},"properties":{"FID":244,"NAME":" ","NAME_EN":" ","RAILWAY":" ","HIGHWAY":"bus_stop","REF":"2110","NETWORK":"Route 21","PUBLIC_TRA":" ","OSM_TYPE":"node","OSM_ID":8792711049}},{"type":"Feature","id":245,"geometry":{"type":"Point","coordinates":[13.1630482,32.887386200000002]},"properties":{"FID":245,"NAME":" ","NAME_EN":" ","RAILWAY":" ","HIGHWAY":"bus_stop","REF":"2104","NETWORK":"Route 21","PUBLIC_TRA":"platform","OSM_TYPE":"node","OSM_ID":8792711050}},{"type":"Feature","id":246,"geometry":{"type":"Point","coordinates":[13.1735235,32.900723800000002]},"properties":{"FID":246,"NAME":" ","NAME_EN":" ","RAILWAY":" ","HIGHWAY":"bus_stop","REF":"2111","NETWORK":"Route 21","PUBLIC_TRA":" ","OSM_TYPE":"node","OSM_ID":8792711051}},{"type":"Feature","id":247,"geometry":{"type":"Point","coordinates":[13.165809800000002,32.891337]},"properties":{"FID":247,"NAME":" ","NAME_EN":" ","RAILWAY":" ","HIGHWAY":"bus_stop","REF":"2106","NETWORK":"Route 21","PUBLIC_TRA":" ","OSM_TYPE":"node","OSM_ID":8792711052}},{"type":"Feature","id":248,"geometry":{"type":"Point","coordinates":[13.1680419,32.894206500000003]},"properties":{"FID":248,"NAME":" ","NAME_EN":" ","RAILWAY":" ","HIGHWAY":"bus_stop","REF":"2109","NETWORK":"Route 21","PUBLIC_TRA":" ","OSM_TYPE":"node","OSM_ID":8792711053}},{"type":"Feature","id":249,"geometry":{"type":"Point","coordinates":[13.1586993,32.884649600000003]},"properties":{"FID":249,"NAME":" ","NAME_EN":" ","RAILWAY":" ","HIGHWAY":"bus_stop","REF":"2102","NETWORK":"Route 21","PUBLIC_TRA":"platform","OSM_TYPE":"node","OSM_ID":8792711054}},{"type":"Feature","id":250,"geometry":{"type":"Point","coordinates":[13.172210100000001,32.901518800000005]},"properties":{"FID":250,"NAME":" ","NAME_EN":" ","RAILWAY":" ","HIGHWAY":"bus_stop","REF":"2112","NETWORK":"Route 21","PUBLIC_TRA":" ","OSM_TYPE":"node","OSM_ID":8792711055}},{"type":"Feature","id":251,"geometry":{"type":"Point","coordinates":[13.165489000000001,32.890489299999999]},"properties":{"FID":251,"NAME":" ","NAME_EN":" ","RAILWAY":" ","HIGHWAY":"bus_stop","REF":"2105","NETWORK":"Route 21","PUBLIC_TRA":" ","OSM_TYPE":"node","OSM_ID":8792711056}},{"type":"Feature","id":252,"geometry":{"type":"Point","coordinates":[13.1680419,32.894206500000003]},"properties":{"FID":252,"NAME":" ","NAME_EN":" ","RAILWAY":" ","HIGHWAY":"bus_stop","REF":"2107","NETWORK":"Route 21","PUBLIC_TRA":" ","OSM_TYPE":"node","OSM_ID":8792711057}},{"type":"Feature","id":253,"geometry":{"type":"Point","coordinates":[13.158901700000001,32.884445500000005]},"properties":{"FID":253,"NAME":" ","NAME_EN":" ","RAILWAY":" ","HIGHWAY":"bus_stop","REF":"2101","NETWORK":"Route 21","PUBLIC_TRA":"platform","OSM_TYPE":"node","OSM_ID":8792711058}},{"type":"Feature","id":254,"geometry":{"type":"Point","coordinates":[13.170056600000001,32.898312400000002]},"properties":{"FID":254,"NAME":" ","NAME_EN":" ","RAILWAY":" ","HIGHWAY":"bus_stop","REF":"2109","NETWORK":"Route 21","PUBLIC_TRA":" ","OSM_TYPE":"node","OSM_ID":8792711059}},{"type":"Feature","id":255,"geometry":{"type":"Point","coordinates":[13.1639564,32.887942200000005]},"properties":{"FID":255,"NAME":" ","NAME_EN":" ","RAILWAY":" ","HIGHWAY":"bus_stop","REF":"2103","NETWORK":"Route 21","PUBLIC_TRA":" ","OSM_TYPE":"node","OSM_ID":8792711060}},{"type":"Feature","id":256,"geometry":{"type":"Point","coordinates":[13.167477700000001,32.893761600000005]},"properties":{"FID":256,"NAME":" ","NAME_EN":" ","RAILWAY":" ","HIGHWAY":"bus_stop","REF":"2108","NETWORK":"Route 21","PUBLIC_TRA":" ","OSM_TYPE":"node","OSM_ID":8792711061}},{"type":"Feature","id":257,"geometry":{"type":"Point","coordinates":[13.300212500000001,32.783776200000005]},"properties":{"FID":257,"NAME":" ","NAME_EN":" ","RAILWAY":" ","HIGHWAY":"bus_stop","REF":"8336","NETWORK":"Route 83","PUBLIC_TRA":" ","OSM_TYPE":"node","OSM_ID":8792722428}},{"type":"Feature","id":258,"geometry":{"type":"Point","coordinates":[13.300079,32.783613700000004]},"properties":{"FID":258,"NAME":" ","NAME_EN":" ","RAILWAY":" ","HIGHWAY":"bus_stop","REF":"8335","NETWORK":"Route 83","PUBLIC_TRA":" ","OSM_TYPE":"node","OSM_ID":8792722429}},{"type":"Feature","id":259,"geometry":{"type":"Point","coordinates":[13.2680872,32.816058000000005]},"properties":{"FID":259,"NAME":" ","NAME_EN":" ","RAILWAY":" ","HIGHWAY":"bus_stop","REF":"8322","NETWORK":"Route 83","PUBLIC_TRA":" ","OSM_TYPE":"node","OSM_ID":8792735312}},{"type":"Feature","id":260,"geometry":{"type":"Point","coordinates":[13.2679936,32.8158897]},"properties":{"FID":260,"NAME":" ","NAME_EN":" ","RAILWAY":" ","HIGHWAY":"bus_stop","REF":"8321","NETWORK":"Route 83","PUBLIC_TRA":" ","OSM_TYPE":"node","OSM_ID":8792735313}},{"type":"Feature","id":261,"geometry":{"type":"Point","coordinates":[13.2747378,32.811]},"properties":{"FID":261,"NAME":" ","NAME_EN":" ","RAILWAY":" ","HIGHWAY":"bus_stop","REF":"8325","NETWORK":"Route 83","PUBLIC_TRA":" ","OSM_TYPE":"node","OSM_ID":8792736908}},{"type":"Feature","id":262,"geometry":{"type":"Point","coordinates":[13.274940600000001,32.8111113]},"properties":{"FID":262,"NAME":" ","NAME_EN":" ","RAILWAY":" ","HIGHWAY":"bus_stop","REF":"8326","NETWORK":"Route 83","PUBLIC_TRA":" ","OSM_TYPE":"node","OSM_ID":8792736909}},{"type":"Feature","id":263,"geometry":{"type":"Point","coordinates":[13.280269800000001,32.806100200000003]},"properties":{"FID":263,"NAME":" ","NAME_EN":" ","RAILWAY":" ","HIGHWAY":"bus_stop","REF":"8330","NETWORK":"Route 83","PUBLIC_TRA":" ","OSM_TYPE":"node","OSM_ID":8792736910}},{"type":"Feature","id":264,"geometry":{"type":"Point","coordinates":[13.280117700000002,32.806002400000004]},"properties":{"FID":264,"NAME":" ","NAME_EN":" ","RAILWAY":" ","HIGHWAY":"bus_stop","REF":"8329","NETWORK":"Route 83","PUBLIC_TRA":" ","OSM_TYPE":"node","OSM_ID":8792736911}},{"type":"Feature","id":265,"geometry":{"type":"Point","coordinates":[13.2778609,32.809002599999999]},"properties":{"FID":265,"NAME":" ","NAME_EN":" ","RAILWAY":" ","HIGHWAY":"bus_stop","REF":"8328","NETWORK":"Route 83","PUBLIC_TRA":" ","OSM_TYPE":"node","OSM_ID":8792736912}},{"type":"Feature","id":266,"geometry":{"type":"Point","coordinates":[13.2777545,32.808858700000002]},"properties":{"FID":266,"NAME":" ","NAME_EN":" ","RAILWAY":" ","HIGHWAY":"bus_stop","REF":"8327","NETWORK":"Route 83","PUBLIC_TRA":" ","OSM_TYPE":"node","OSM_ID":8792736913}},{"type":"Feature","id":267,"geometry":{"type":"Point","coordinates":[13.315001000000001,32.7467398]},"properties":{"FID":267,"NAME":" ","NAME_EN":" ","RAILWAY":" ","HIGHWAY":"bus_stop","REF":"8343","NETWORK":"Route 83","PUBLIC_TRA":" ","OSM_TYPE":"node","OSM_ID":8792749708}},{"type":"Feature","id":268,"geometry":{"type":"Point","coordinates":[13.303471900000002,32.774253399999999]},"properties":{"FID":268,"NAME":" ","NAME_EN":" ","RAILWAY":" ","HIGHWAY":"bus_stop","REF":"8337","NETWORK":"Route 83","PUBLIC_TRA":" ","OSM_TYPE":"node","OSM_ID":8792749709}},{"type":"Feature","id":269,"geometry":{"type":"Point","coordinates":[13.312297000000001,32.755912299999999]},"properties":{"FID":269,"NAME":" ","NAME_EN":" ","RAILWAY":" ","HIGHWAY":"bus_stop","REF":"8342","NETWORK":"Route 83","PUBLIC_TRA":" ","OSM_TYPE":"node","OSM_ID":8792749710}},{"type":"Feature","id":270,"geometry":{"type":"Point","coordinates":[13.312118300000002,32.755771899999999]},"properties":{"FID":270,"NAME":" ","NAME_EN":" ","RAILWAY":" ","HIGHWAY":"bus_stop","REF":"8341","NETWORK":"Route 83","PUBLIC_TRA":" ","OSM_TYPE":"node","OSM_ID":8792749711}},{"type":"Feature","id":271,"geometry":{"type":"Point","coordinates":[13.310781700000001,32.730193100000001]},"properties":{"FID":271,"NAME":" ","NAME_EN":" ","RAILWAY":" ","HIGHWAY":"bus_stop","REF":"8346","NETWORK":"Route 83","PUBLIC_TRA":" ","OSM_TYPE":"node","OSM_ID":8792749712}},{"type":"Feature","id":272,"geometry":{"type":"Point","coordinates":[13.304302000000002,32.7645518]},"properties":{"FID":272,"NAME":" ","NAME_EN":" ","RAILWAY":" ","HIGHWAY":"bus_stop","REF":"8340","NETWORK":"Route 83","PUBLIC_TRA":" ","OSM_TYPE":"node","OSM_ID":8792749713}},{"type":"Feature","id":273,"geometry":{"type":"Point","coordinates":[13.3124497,32.740416100000004]},"properties":{"FID":273,"NAME":" ","NAME_EN":" ","RAILWAY":" ","HIGHWAY":"bus_stop","REF":"8345","NETWORK":"Route 83","PUBLIC_TRA":" ","OSM_TYPE":"node","OSM_ID":8792749714}},{"type":"Feature","id":274,"geometry":{"type":"Point","coordinates":[13.304161400000002,32.764470500000002]},"properties":{"FID":274,"NAME":" ","NAME_EN":" ","RAILWAY":" ","HIGHWAY":"bus_stop","REF":"8339","NETWORK":"Route 83","PUBLIC_TRA":" ","OSM_TYPE":"node","OSM_ID":8792749715}},{"type":"Feature","id":275,"geometry":{"type":"Point","coordinates":[13.315175100000001,32.746673000000001]},"properties":{"FID":275,"NAME":" ","NAME_EN":" ","RAILWAY":" ","HIGHWAY":"bus_stop","REF":"8344","NETWORK":"Route 83","PUBLIC_TRA":" ","OSM_TYPE":"node","OSM_ID":8792749716}},{"type":"Feature","id":276,"geometry":{"type":"Point","coordinates":[13.260293000000001,32.823024000000004]},"properties":{"FID":276,"NAME":" ","NAME_EN":" ","RAILWAY":" ","HIGHWAY":"bus_stop","REF":"8315","NETWORK":"Route 83","PUBLIC_TRA":" ","OSM_TYPE":"node","OSM_ID":8792752086}},{"type":"Feature","id":277,"geometry":{"type":"Point","coordinates":[13.265035800000001,32.818245300000001]},"properties":{"FID":277,"NAME":" ","NAME_EN":" ","RAILWAY":" ","HIGHWAY":"bus_stop","REF":"8320","NETWORK":"Route 83","PUBLIC_TRA":" ","OSM_TYPE":"node","OSM_ID":8792752087}},{"type":"Feature","id":278,"geometry":{"type":"Point","coordinates":[13.264903100000002,32.8181425]},"properties":{"FID":278,"NAME":" ","NAME_EN":" ","RAILWAY":" ","HIGHWAY":"bus_stop","REF":"8319","NETWORK":"Route 83","PUBLIC_TRA":" ","OSM_TYPE":"node","OSM_ID":8792752088}},{"type":"Feature","id":279,"geometry":{"type":"Point","coordinates":[13.262819,32.820597900000003]},"properties":{"FID":279,"NAME":" ","NAME_EN":" ","RAILWAY":" ","HIGHWAY":"bus_stop","REF":"8318","NETWORK":"Route 83","PUBLIC_TRA":" ","OSM_TYPE":"node","OSM_ID":8792752089}},{"type":"Feature","id":280,"geometry":{"type":"Point","coordinates":[13.262674400000002,32.820465800000001]},"properties":{"FID":280,"NAME":" ","NAME_EN":" ","RAILWAY":" ","HIGHWAY":"bus_stop","REF":"8317","NETWORK":"Route 83","PUBLIC_TRA":" ","OSM_TYPE":"node","OSM_ID":8792752090}},{"type":"Feature","id":281,"geometry":{"type":"Point","coordinates":[13.260397000000001,32.823153500000004]},"properties":{"FID":281,"NAME":" ","NAME_EN":" ","RAILWAY":" ","HIGHWAY":"bus_stop","REF":"8316","NETWORK":"Route 83","PUBLIC_TRA":" ","OSM_TYPE":"node","OSM_ID":8792752091}},{"type":"Feature","id":282,"geometry":{"type":"Point","coordinates":[13.285580000000001,32.7994846]},"properties":{"FID":282,"NAME":" ","NAME_EN":" ","RAILWAY":" ","HIGHWAY":"bus_stop","REF":"8332","NETWORK":"Route 83","PUBLIC_TRA":" ","OSM_TYPE":"node","OSM_ID":8792786992}},{"type":"Feature","id":283,"geometry":{"type":"Point","coordinates":[13.2852829,32.799275700000003]},"properties":{"FID":283,"NAME":" ","NAME_EN":" ","RAILWAY":" ","HIGHWAY":"bus_stop","REF":"8331","NETWORK":"Route 83","PUBLIC_TRA":" ","OSM_TYPE":"node","OSM_ID":8792786993}},{"type":"Feature","id":284,"geometry":{"type":"Point","coordinates":[13.2919371,32.791741300000005]},"properties":{"FID":284,"NAME":" ","NAME_EN":" ","RAILWAY":" ","HIGHWAY":"bus_stop","REF":"8334","NETWORK":"Route 83","PUBLIC_TRA":" ","OSM_TYPE":"node","OSM_ID":8792786994}},{"type":"Feature","id":285,"geometry":{"type":"Point","coordinates":[13.2916267,32.791533399999999]},"properties":{"FID":285,"NAME":" ","NAME_EN":" ","RAILWAY":" ","HIGHWAY":"bus_stop","REF":"8333","NETWORK":"Route 83","PUBLIC_TRA":" ","OSM_TYPE":"node","OSM_ID":8792786995}},{"type":"Feature","id":286,"geometry":{"type":"Point","coordinates":[13.303705500000001,32.7744091]},"properties":{"FID":286,"NAME":" ","NAME_EN":" ","RAILWAY":" ","HIGHWAY":"bus_stop","REF":"8338","NETWORK":"Route 83","PUBLIC_TRA":" ","OSM_TYPE":"node","OSM_ID":8792799717}},{"type":"Feature","id":287,"geometry":{"type":"Point","coordinates":[13.271279700000001,32.8135245]},"properties":{"FID":287,"NAME":" ","NAME_EN":" ","RAILWAY":" ","HIGHWAY":"bus_stop","REF":"8323","NETWORK":"Route 83","PUBLIC_TRA":" ","OSM_TYPE":"node","OSM_ID":8792804921}},{"type":"Feature","id":288,"geometry":{"type":"Point","coordinates":[13.271380700000002,32.813690300000005]},"properties":{"FID":288,"NAME":" ","NAME_EN":" ","RAILWAY":" ","HIGHWAY":"bus_stop","REF":"8324","NETWORK":"Route 83","PUBLIC_TRA":" ","OSM_TYPE":"node","OSM_ID":8792804922}},{"type":"Feature","id":289,"geometry":{"type":"Point","coordinates":[13.257347000000001,32.826668099999999]},"properties":{"FID":289,"NAME":" ","NAME_EN":" ","RAILWAY":" ","HIGHWAY":"bus_stop","REF":"8314","NETWORK":"Route 83","PUBLIC_TRA":" ","OSM_TYPE":"node","OSM_ID":8792807553}},{"type":"Feature","id":290,"geometry":{"type":"Point","coordinates":[13.257047900000002,32.826538800000002]},"properties":{"FID":290,"NAME":" ","NAME_EN":" ","RAILWAY":" ","HIGHWAY":"bus_stop","REF":"8313","NETWORK":"Route 83","PUBLIC_TRA":" ","OSM_TYPE":"node","OSM_ID":8792807554}},{"type":"Feature","id":291,"geometry":{"type":"Point","coordinates":[13.2551983,32.829462100000001]},"properties":{"FID":291,"NAME":" ","NAME_EN":" ","RAILWAY":" ","HIGHWAY":"bus_stop","REF":"8312","NETWORK":"Route 83","PUBLIC_TRA":" ","OSM_TYPE":"node","OSM_ID":8792831447}},{"type":"Feature","id":292,"geometry":{"type":"Point","coordinates":[13.254950500000001,32.8296353]},"properties":{"FID":292,"NAME":" ","NAME_EN":" ","RAILWAY":" ","HIGHWAY":"bus_stop","REF":"8311","NETWORK":"Route 83","PUBLIC_TRA":" ","OSM_TYPE":"node","OSM_ID":8792831448}},{"type":"Feature","id":293,"geometry":{"type":"Point","coordinates":[13.392375800000002,32.8791157]},"properties":{"FID":293,"NAME":" ","NAME_EN":" ","RAILWAY":" ","HIGHWAY":"bus_stop","REF":"2194","NETWORK":"Route 21","PUBLIC_TRA":" ","OSM_TYPE":"node","OSM_ID":8792833037}},{"type":"Feature","id":294,"geometry":{"type":"Point","coordinates":[13.388243500000002,32.890815799999999]},"properties":{"FID":294,"NAME":" ","NAME_EN":" ","RAILWAY":" ","HIGHWAY":"bus_stop","REF":"2179","NETWORK":"Route 21","PUBLIC_TRA":" ","OSM_TYPE":"node","OSM_ID":8792833038}},{"type":"Feature","id":295,"geometry":{"type":"Point","coordinates":[13.3921501,32.879946100000005]},"properties":{"FID":295,"NAME":" ","NAME_EN":" ","RAILWAY":" ","HIGHWAY":"bus_stop","REF":"2192","NETWORK":"Route 21","PUBLIC_TRA":" ","OSM_TYPE":"node","OSM_ID":8792833039}},{"type":"Feature","id":296,"geometry":{"type":"Point","coordinates":[13.3850566,32.894660300000005]},"properties":{"FID":296,"NAME":" ","NAME_EN":" ","RAILWAY":" ","HIGHWAY":"bus_stop","REF":"2186","NETWORK":"Route 21","PUBLIC_TRA":" ","OSM_TYPE":"node","OSM_ID":8792833040}},{"type":"Feature","id":297,"geometry":{"type":"Point","coordinates":[13.391947900000002,32.879700900000003]},"properties":{"FID":297,"NAME":" ","NAME_EN":" ","RAILWAY":" ","HIGHWAY":"bus_stop","REF":"2183","NETWORK":"Route 21","PUBLIC_TRA":" ","OSM_TYPE":"node","OSM_ID":8792833041}},{"type":"Feature","id":298,"geometry":{"type":"Point","coordinates":[13.384915900000001,32.894198299999999]},"properties":{"FID":298,"NAME":" ","NAME_EN":" ","RAILWAY":" ","HIGHWAY":"bus_stop","REF":"2177","NETWORK":"Route 21","PUBLIC_TRA":" ","OSM_TYPE":"node","OSM_ID":8792833042}},{"type":"Feature","id":299,"geometry":{"type":"Point","coordinates":[13.391189000000001,32.886978599999999]},"properties":{"FID":299,"NAME":" ","NAME_EN":" ","RAILWAY":" ","HIGHWAY":"bus_stop","REF":"2190","NETWORK":"Route 21","PUBLIC_TRA":" ","OSM_TYPE":"node","OSM_ID":8792833043}},{"type":"Feature","id":300,"geometry":{"type":"Point","coordinates":[13.3796198,32.894614900000001]},"properties":{"FID":300,"NAME":" ","NAME_EN":" ","RAILWAY":" ","HIGHWAY":"bus_stop","REF":"2184","NETWORK":"Route 21","PUBLIC_TRA":" ","OSM_TYPE":"node","OSM_ID":8792833044}},{"type":"Feature","id":301,"geometry":{"type":"Point","coordinates":[13.3910634,32.886828800000004]},"properties":{"FID":301,"NAME":" ","NAME_EN":" ","RAILWAY":" ","HIGHWAY":"bus_stop","REF":"2181","NETWORK":"Route 21","PUBLIC_TRA":" ","OSM_TYPE":"node","OSM_ID":8792833045}},{"type":"Feature","id":302,"geometry":{"type":"Point","coordinates":[13.3693659,32.894736900000005]},"properties":{"FID":302,"NAME":" ","NAME_EN":" ","RAILWAY":" ","HIGHWAY":"bus_stop","REF":"2171","NETWORK":"Route 21","PUBLIC_TRA":" ","OSM_TYPE":"node","OSM_ID":8792833046}},{"type":"Feature","id":303,"geometry":{"type":"Point","coordinates":[13.392523000000001,32.878040200000001]},"properties":{"FID":303,"NAME":" ","NAME_EN":" ","RAILWAY":" ","HIGHWAY":"bus_stop","REF":"2185","NETWORK":"Route 21","PUBLIC_TRA":" ","OSM_TYPE":"node","OSM_ID":8792833047}},{"type":"Feature","id":304,"geometry":{"type":"Point","coordinates":[13.3884089,32.890916900000001]},"properties":{"FID":304,"NAME":" ","NAME_EN":" ","RAILWAY":" ","HIGHWAY":"bus_stop","REF":"2188","NETWORK":"Route 21","PUBLIC_TRA":" ","OSM_TYPE":"node","OSM_ID":8792833048}},{"type":"Feature","id":305,"geometry":{"type":"Point","coordinates":[13.3697949,32.895069400000004]},"properties":{"FID":305,"NAME":" ","NAME_EN":" ","RAILWAY":" ","HIGHWAY":"bus_stop","REF":"2180","NETWORK":"Route 21","PUBLIC_TRA":" ","OSM_TYPE":"node","OSM_ID":8792833049}},{"type":"Feature","id":306,"geometry":{"type":"Point","coordinates":[13.349150400000001,32.893385900000006]},"properties":{"FID":306,"NAME":" ","NAME_EN":" ","RAILWAY":" ","HIGHWAY":"bus_stop","REF":"2172","NETWORK":"Route 21","PUBLIC_TRA":" ","OSM_TYPE":"node","OSM_ID":8792838735}},{"type":"Feature","id":307,"geometry":{"type":"Point","coordinates":[13.348331100000001,32.893132800000004]},"properties":{"FID":307,"NAME":" ","NAME_EN":" ","RAILWAY":" ","HIGHWAY":"bus_stop","REF":"2163","NETWORK":"Route 21","PUBLIC_TRA":" ","OSM_TYPE":"node","OSM_ID":8792838736}},{"type":"Feature","id":308,"geometry":{"type":"Point","coordinates":[13.359136100000001,32.894112900000003]},"properties":{"FID":308,"NAME":" ","NAME_EN":" ","RAILWAY":" ","HIGHWAY":"bus_stop","REF":"2176","NETWORK":"Route 21","PUBLIC_TRA":" ","OSM_TYPE":"node","OSM_ID":8792838737}},{"type":"Feature","id":309,"geometry":{"type":"Point","coordinates":[13.353977500000001,32.892973699999999]},"properties":{"FID":309,"NAME":" ","NAME_EN":" ","RAILWAY":" ","HIGHWAY":"bus_stop","REF":"2165","NETWORK":"Route 21","PUBLIC_TRA":" ","OSM_TYPE":"node","OSM_ID":8792838738}},{"type":"Feature","id":310,"geometry":{"type":"Point","coordinates":[13.364396600000001,32.894453599999999]},"properties":{"FID":310,"NAME":" ","NAME_EN":" ","RAILWAY":" ","HIGHWAY":"bus_stop","REF":"2169","NETWORK":"Route 21","PUBLIC_TRA":" ","OSM_TYPE":"node","OSM_ID":8792864524}},{"type":"Feature","id":311,"geometry":{"type":"Point","coordinates":[13.3643239,32.894918100000005]},"properties":{"FID":311,"NAME":" ","NAME_EN":" ","RAILWAY":" ","HIGHWAY":"bus_stop","REF":"2178","NETWORK":"Route 21","PUBLIC_TRA":" ","OSM_TYPE":"node","OSM_ID":8792864525}},{"type":"Feature","id":312,"geometry":{"type":"Point","coordinates":[13.338552400000001,32.894922200000003]},"properties":{"FID":312,"NAME":" ","NAME_EN":" ","RAILWAY":" ","HIGHWAY":"bus_stop","REF":"2159","NETWORK":"Route 21","PUBLIC_TRA":" ","OSM_TYPE":"node","OSM_ID":8792865968}},{"type":"Feature","id":313,"geometry":{"type":"Point","coordinates":[13.338554,32.895258800000001]},"properties":{"FID":313,"NAME":" ","NAME_EN":" ","RAILWAY":" ","HIGHWAY":"bus_stop","REF":"2168","NETWORK":"Route 21","PUBLIC_TRA":" ","OSM_TYPE":"node","OSM_ID":8792865969}},{"type":"Feature","id":314,"geometry":{"type":"Point","coordinates":[13.323426100000001,32.896479599999999]},"properties":{"FID":314,"NAME":" ","NAME_EN":" ","RAILWAY":" ","HIGHWAY":"bus_stop","REF":"2164","NETWORK":"Route 21","PUBLIC_TRA":" ","OSM_TYPE":"node","OSM_ID":8792865974}},{"type":"Feature","id":315,"geometry":{"type":"Point","coordinates":[13.302616100000002,32.902944500000004]},"properties":{"FID":315,"NAME":" ","NAME_EN":" ","RAILWAY":" ","HIGHWAY":"bus_stop","REF":"2162","NETWORK":"Route 21","PUBLIC_TRA":" ","OSM_TYPE":"node","OSM_ID":8792871468}},{"type":"Feature","id":316,"geometry":{"type":"Point","coordinates":[13.3025129,32.902630700000003]},"properties":{"FID":316,"NAME":" ","NAME_EN":" ","RAILWAY":" ","HIGHWAY":"bus_stop","REF":"2153","NETWORK":"Route 21","PUBLIC_TRA":" ","OSM_TYPE":"node","OSM_ID":8792871469}},{"type":"Feature","id":317,"geometry":{"type":"Point","coordinates":[13.267541300000001,32.9066148]},"properties":{"FID":317,"NAME":" ","NAME_EN":" ","RAILWAY":" ","HIGHWAY":"bus_stop","REF":"2147","NETWORK":"Route 21","PUBLIC_TRA":" ","OSM_TYPE":"node","OSM_ID":8792871470}},{"type":"Feature","id":318,"geometry":{"type":"Point","coordinates":[13.329566600000001,32.895242000000003]},"properties":{"FID":318,"NAME":" ","NAME_EN":" ","RAILWAY":" ","HIGHWAY":"bus_stop","REF":"2157","NETWORK":"Route 21","PUBLIC_TRA":" ","OSM_TYPE":"node","OSM_ID":8792877199}},{"type":"Feature","id":319,"geometry":{"type":"Point","coordinates":[13.329654300000001,32.895662100000003]},"properties":{"FID":319,"NAME":" ","NAME_EN":" ","RAILWAY":" ","HIGHWAY":"bus_stop","REF":"2166","NETWORK":"Route 21","PUBLIC_TRA":" ","OSM_TYPE":"node","OSM_ID":8792877200}},{"type":"Feature","id":320,"geometry":{"type":"Point","coordinates":[13.2829569,32.908256200000004]},"properties":{"FID":320,"NAME":" ","NAME_EN":" ","RAILWAY":" ","HIGHWAY":"bus_stop","REF":"2151","NETWORK":"Route 21","PUBLIC_TRA":" ","OSM_TYPE":"node","OSM_ID":8792924825}},{"type":"Feature","id":321,"geometry":{"type":"Point","coordinates":[13.2829347,32.908620200000001]},"properties":{"FID":321,"NAME":" ","NAME_EN":" ","RAILWAY":" ","HIGHWAY":"bus_stop","REF":"2160","NETWORK":"Route 21","PUBLIC_TRA":" ","OSM_TYPE":"node","OSM_ID":8792924826}},{"type":"Feature","id":322,"geometry":{"type":"Point","coordinates":[13.273312200000001,32.907876800000004]},"properties":{"FID":322,"NAME":"معيتيقة","NAME_EN":"Mitiga","RAILWAY":" ","HIGHWAY":"bus_stop","REF":"2149","NETWORK":"Route 21","PUBLIC_TRA":" ","OSM_TYPE":"node","OSM_ID":8792924827}},{"type":"Feature","id":323,"geometry":{"type":"Point","coordinates":[13.273240600000001,32.908202899999999]},"properties":{"FID":323,"NAME":"معيتيقة","NAME_EN":"Mitiga","RAILWAY":" ","HIGHWAY":"bus_stop","REF":"2158","NETWORK":"Route 21","PUBLIC_TRA":" ","OSM_TYPE":"node","OSM_ID":8792924828}},{"type":"Feature","id":324,"geometry":{"type":"Point","coordinates":[13.249742400000001,32.906854299999999]},"properties":{"FID":324,"NAME":" ","NAME_EN":" ","RAILWAY":" ","HIGHWAY":"bus_stop","REF":"2139","NETWORK":"Route 21","PUBLIC_TRA":" ","OSM_TYPE":"node","OSM_ID":8792975438}},{"type":"Feature","id":325,"geometry":{"type":"Point","coordinates":[13.2497568,32.907197600000003]},"properties":{"FID":325,"NAME":" ","NAME_EN":" ","RAILWAY":" ","HIGHWAY":"bus_stop","REF":"2138","NETWORK":"Route 21","PUBLIC_TRA":" ","OSM_TYPE":"node","OSM_ID":8792975439}},{"type":"Feature","id":326,"geometry":{"type":"Point","coordinates":[13.243696700000001,32.908858900000006]},"properties":{"FID":326,"NAME":" ","NAME_EN":" ","RAILWAY":" ","HIGHWAY":"bus_stop","REF":"2146","NETWORK":"Route 21","PUBLIC_TRA":" ","OSM_TYPE":"node","OSM_ID":8792979994}},{"type":"Feature","id":327,"geometry":{"type":"Point","coordinates":[13.253798600000001,32.906668500000002]},"properties":{"FID":327,"NAME":" ","NAME_EN":" ","RAILWAY":" ","HIGHWAY":"bus_stop","REF":"2141","NETWORK":"Route 21","PUBLIC_TRA":" ","OSM_TYPE":"node","OSM_ID":8792980368}},{"type":"Feature","id":328,"geometry":{"type":"Point","coordinates":[13.2538479,32.9069875]},"properties":{"FID":328,"NAME":" ","NAME_EN":" ","RAILWAY":" ","HIGHWAY":"bus_stop","REF":"2150","NETWORK":"Route 21","PUBLIC_TRA":" ","OSM_TYPE":"node","OSM_ID":8792980369}},{"type":"Feature","id":329,"geometry":{"type":"Point","coordinates":[13.262197700000002,32.906926400000003]},"properties":{"FID":329,"NAME":" ","NAME_EN":" ","RAILWAY":" ","HIGHWAY":"bus_stop","REF":"2154","NETWORK":"Route 21","PUBLIC_TRA":" ","OSM_TYPE":"node","OSM_ID":8792986334}},{"type":"Feature","id":330,"geometry":{"type":"Point","coordinates":[13.258530500000001,32.906805400000003]},"properties":{"FID":330,"NAME":" ","NAME_EN":" ","RAILWAY":" ","HIGHWAY":"bus_stop","REF":"2152","NETWORK":"Route 21","PUBLIC_TRA":" ","OSM_TYPE":"node","OSM_ID":8792986336}},{"type":"Feature","id":331,"geometry":{"type":"Point","coordinates":[13.2585788,32.906418800000004]},"properties":{"FID":331,"NAME":" ","NAME_EN":" ","RAILWAY":" ","HIGHWAY":"bus_stop","REF":"2143","NETWORK":"Route 21","PUBLIC_TRA":" ","OSM_TYPE":"node","OSM_ID":8792986339}},{"type":"Feature","id":332,"geometry":{"type":"Point","coordinates":[13.262240100000001,32.906470500000005]},"properties":{"FID":332,"NAME":" ","NAME_EN":" ","RAILWAY":" ","HIGHWAY":"bus_stop","REF":"2145","NETWORK":"Route 21","PUBLIC_TRA":" ","OSM_TYPE":"node","OSM_ID":8792986340}},{"type":"Feature","id":333,"geometry":{"type":"Point","coordinates":[13.230009300000001,32.906956600000001]},"properties":{"FID":333,"NAME":" ","NAME_EN":" ","RAILWAY":" ","HIGHWAY":"bus_stop","REF":"2140","NETWORK":"Route 21","PUBLIC_TRA":" ","OSM_TYPE":"node","OSM_ID":8792990374}},{"type":"Feature","id":334,"geometry":{"type":"Point","coordinates":[13.236707800000001,32.9085714]},"properties":{"FID":334,"NAME":" ","NAME_EN":" ","RAILWAY":" ","HIGHWAY":"bus_stop","REF":"2135","NETWORK":"Route 21","PUBLIC_TRA":" ","OSM_TYPE":"node","OSM_ID":8792993002}},{"type":"Feature","id":335,"geometry":{"type":"Point","coordinates":[13.240074700000001,32.909555500000003]},"properties":{"FID":335,"NAME":" ","NAME_EN":" ","RAILWAY":" ","HIGHWAY":"bus_stop","REF":"2144","NETWORK":"Route 21","PUBLIC_TRA":" ","OSM_TYPE":"node","OSM_ID":8792993003}},{"type":"Feature","id":336,"geometry":{"type":"Point","coordinates":[13.2423494,32.908709700000003]},"properties":{"FID":336,"NAME":" ","NAME_EN":" ","RAILWAY":" ","HIGHWAY":"bus_stop","REF":"2137","NETWORK":"Route 21","PUBLIC_TRA":" ","OSM_TYPE":"node","OSM_ID":8792993004}},{"type":"Feature","id":337,"geometry":{"type":"Point","coordinates":[13.234857400000001,32.908379700000005]},"properties":{"FID":337,"NAME":" ","NAME_EN":" ","RAILWAY":" ","HIGHWAY":"bus_stop","REF":"2142","NETWORK":"Route 21","PUBLIC_TRA":" ","OSM_TYPE":"node","OSM_ID":8793006805}},{"type":"Feature","id":338,"geometry":{"type":"Point","coordinates":[13.2253501,32.904976699999999]},"properties":{"FID":338,"NAME":" ","NAME_EN":" ","RAILWAY":" ","HIGHWAY":"bus_stop","REF":"2131","NETWORK":"Route 21","PUBLIC_TRA":" ","OSM_TYPE":"node","OSM_ID":8793015754}},{"type":"Feature","id":339,"geometry":{"type":"Point","coordinates":[13.225172200000001,32.905317600000004]},"properties":{"FID":339,"NAME":" ","NAME_EN":" ","RAILWAY":" ","HIGHWAY":"bus_stop","REF":"2138","NETWORK":"Route 21","PUBLIC_TRA":" ","OSM_TYPE":"node","OSM_ID":8793015761}},{"type":"Feature","id":340,"geometry":{"type":"Point","coordinates":[13.2129639,32.900933300000005]},"properties":{"FID":340,"NAME":" ","NAME_EN":" ","RAILWAY":" ","HIGHWAY":"bus_stop","REF":"2130","NETWORK":"Route 21","PUBLIC_TRA":" ","OSM_TYPE":"node","OSM_ID":8793042110}},{"type":"Feature","id":341,"geometry":{"type":"Point","coordinates":[13.213658200000001,32.900701000000005]},"properties":{"FID":341,"NAME":" ","NAME_EN":" ","RAILWAY":" ","HIGHWAY":"bus_stop","REF":"2127","NETWORK":"Route 21","PUBLIC_TRA":" ","OSM_TYPE":"node","OSM_ID":8793042111}},{"type":"Feature","id":342,"geometry":{"type":"Point","coordinates":[13.207820600000002,32.900769600000004]},"properties":{"FID":342,"NAME":" ","NAME_EN":" ","RAILWAY":" ","HIGHWAY":"bus_stop","REF":"2132","NETWORK":"Route 21","PUBLIC_TRA":" ","OSM_TYPE":"node","OSM_ID":8793045053}},{"type":"Feature","id":343,"geometry":{"type":"Point","coordinates":[13.208008400000001,32.900334300000004]},"properties":{"FID":343,"NAME":" ","NAME_EN":" ","RAILWAY":" ","HIGHWAY":"bus_stop","REF":"2125","NETWORK":"Route 21","PUBLIC_TRA":" ","OSM_TYPE":"node","OSM_ID":8793045054}},{"type":"Feature","id":344,"geometry":{"type":"Point","coordinates":[13.195965200000002,32.895992400000004]},"properties":{"FID":344,"NAME":" ","NAME_EN":" ","RAILWAY":" ","HIGHWAY":"bus_stop","REF":"2128","NETWORK":"Route 21","PUBLIC_TRA":" ","OSM_TYPE":"node","OSM_ID":8793055313}},{"type":"Feature","id":345,"geometry":{"type":"Point","coordinates":[13.196287300000002,32.8956351]},"properties":{"FID":345,"NAME":" ","NAME_EN":" ","RAILWAY":" ","HIGHWAY":"bus_stop","REF":"2121","NETWORK":"Route 21","PUBLIC_TRA":" ","OSM_TYPE":"node","OSM_ID":8793055314}},{"type":"Feature","id":346,"geometry":{"type":"Point","coordinates":[13.2018418,32.897481300000003]},"properties":{"FID":346,"NAME":" ","NAME_EN":" ","RAILWAY":" ","HIGHWAY":"bus_stop","REF":"2123","NETWORK":"Route 21","PUBLIC_TRA":" ","OSM_TYPE":"node","OSM_ID":8793061700}}]
}